eventname	origintime	hyplon	hyplat	hypdepth (km)	mw	network	station	stlon	stlat	stelev	hypdist	duration_e	duration_n	duration_horiz	pga	pgv	tPGV_origin	tPGV_parriv	tPGA_origin	tPGA_parriv	polygon	ask14	sk13	z16	ask14_dE	ask14_dE_std	ask14_dS	ask14_dS_std	ask14_dPol	ask14_dPol_std	ask14_dP	sk13_dE	sk13_dE_std	sk13_dS	sk13_dS_std	sk13_dPol	sk13_dPol_std	sk13_dP	z16_dE	z16_dE_std	z16_dS	z16_dS_std	z16_dPol	z16_dPol_std	z16_dP
71	2020/2/7T3:11:48.1	26.5741	35.1654	5	4.5	HL	ARG	28.12122	36.21356	148	182.100299	60	60	60	0.00055474	4.23E-05	-22695049	-22695058.2	-22695063.13	-22695072.33	1	-1.971269953	-1.517453163	-3.115464203	0.182106898	0.234443006	-0.830681866	0.157263713	-0.121445062	0.10801017	-1.185301775	0.253891132	0.227111951	-0.566003538	0.149018864	-0.178695094	0.099378435	-1.111247202	0.967705972	0.241008366	-0.761466029	0.152585831	-0.13043653	0.110764729	-0.994648125
127	2020/4/11T10:22:55.6	26.1795	35.2176	21	4.8	HL	ARG	28.12122	36.21356	148	208.6285924	60	60	60	0.002134801	0.000169888	-17139576.71	-17139585.91	-17139577.77	-17139586.97	1	-0.90583406	-0.418604567	-1.605843296	-0.225334057	0.110173683	-0.830681866	0.157263713	-0.121445062	0.10801017	0.287575072	-0.112820926	0.106491447	-0.566003538	0.149018864	-0.178695094	0.099378435	0.354313452	1.008544521	0.116456224	-0.761466029	0.152585831	-0.13043653	0.110764729	0.474134233
140	2020/4/22T6:5:50.8	26.1887	35.2139	19	4.4	HL	ARG	28.12122	36.21356	148	207.9562204	60	60	60	0.00036	2.71E-05	-16204602.1	-16204611.3	-16204615.59	-16204624.79	1	-1.833443785	-1.39955914	-3.140913939	-0.274604441	0.244362319	-0.830681866	0.157263713	-0.121445062	0.10801017	-0.590764269	-0.227178854	0.236705329	-0.566003538	0.149018864	-0.178695094	0.099378435	-0.512283193	0.352725466	0.251685304	-0.761466029	0.152585831	-0.13043653	0.110764729	-0.405117355
150	2020/5/2T12:51:9.2	25.6915	34.4366	9	6	HL	ARG	28.12122	36.21356	148	296.219477	60	60	60	0.001570291	0.000289123	-15316275.29	-15316284.49	-15316271.98	-15316281.18	1	-2.122314874	-2.137559019	-1.946033687	-0.930147423	0.106111378	-0.830681866	0.157263713	-0.121445062	0.10801017	-0.224092376	-1.180843283	0.102497743	-0.566003538	0.149018864	-0.178695094	0.099378435	-0.296618643	1.292843971	0.112683034	-0.761466029	0.152585831	-0.13043653	0.110764729	-0.150355607
153	2020/5/2T13:33:52.6	25.4242	34.3707	5	4.7	HL	ARG	28.12122	36.21356	148	319.3721096	60	60	60	0.000158511	2.32E-05	-15313709.51	-15313718.71	-15313706.71	-15313715.91	1	-1.95237695	-1.567815386	-2.864285791	-0.494701994	0.146451416	-0.830681866	0.157263713	-0.121445062	0.10801017	-0.489599881	-0.434426957	0.141806343	-0.566003538	0.149018864	-0.178695094	0.099378435	-0.473291336	0.550454075	0.151027598	-0.761466029	0.152585831	-0.13043653	0.110764729	-0.326217816
157	2020/5/2T16:44:31.3	25.6375	34.4577	5	4.8	HL	ARG	28.12122	36.21356	148	298.2469922	60	60	60	0.000269571	6.61E-05	-15302268.41	-15302277.61	-15302267.91	-15302277.11	1	-1.875815847	-1.455288188	-2.62504292	-0.245896595	0.11412002	-0.830681866	0.157263713	-0.121445062	0.10801017	-0.661844177	-0.194919121	0.110326472	-0.566003538	0.149018864	-0.178695094	0.099378435	-0.600271974	0.940341723	0.12013804	-0.761466029	0.152585831	-0.13043653	0.110764729	-0.476862593
196	2020/5/18T23:22:37.2	25.5762	34.3066	7	5.2	HL	ARG	28.12122	36.21356	148	313.7389617	60	60	60	0.000295055	6.47E-05	-13895987.95	-13895997.15	-13895981.91	-13895991.11	1	-2.356866141	-2.013134665	-2.674440047	-0.826509415	0.104603435	-0.830681866	0.157263713	-0.121445062	0.10801017	-0.562281651	-0.81379422	0.101050847	-0.566003538	0.149018864	-0.178695094	0.099378435	-0.539243353	0.823476381	0.11129827	-0.761466029	0.152585831	-0.13043653	0.110764729	-0.409394378
337	2020/6/28T11:18:35.0	26.6757	35.5289	8	4.4	HL	ARG	28.12122	36.21356	148	151.2567906	60	60	60	0.002451666	0.000120747	-10397048.33	-10397057.53	-10397048.38	-10397057.58	1	-0.727779554	-0.291276746	-2.027572482	-0.007932511	0.176900345	-0.830681866	0.157263713	-0.121445062	0.10801017	0.248228033	0.062978717	0.171382307	-0.566003538	0.149018864	-0.178695094	0.099378435	0.30584163	0.645813932	0.181209306	-0.761466029	0.152585831	-0.13043653	0.110764729	0.415135636
345	2020/6/30T0:44:37.5	26.6876	35.5499	10	4	HL	ARG	28.12122	36.21356	148	149.2743283	60	60	60	0.0012173	5.96E-05	-10262285.91	-10262295.11	-10262285.98	-10262295.18	1	-0.597597266	-0.215494402	-2.555857333	0.370806135	0.233531595	-0.830681866	0.157263713	-0.121445062	0.10801017	-0.000328325	0.405467884	0.226241941	-0.566003538	0.149018864	-0.178695094	0.099378435	0.039134807	0.491696097	0.240011341	-0.761466029	0.152585831	-0.13043653	0.110764729	0.040968621
401	2020/8/14T13:46:27.3	26.3104	35.1398	14	4	HL	ARG	28.12122	36.21356	148	203.1388173	60	60	60	0.000379308	1.43E-05	-6327389.49	-6327398.692	-6327389.43	-6327398.632	1	-0.984197	-0.602263819	-2.948054504	-0.001085634	0.271327804	-0.830681866	0.157263713	-0.121445062	0.10801017	-0.015036291	-0.05256672	0.262734029	-0.566003538	0.149018864	-0.178695094	0.099378435	0.110399993	0.052294981	0.281364037	-0.761466029	0.152585831	-0.13043653	0.110764729	0.088172565
436	2020/9/18T16:28:18.6	25.2933	34.9338	52	5.3	HL	ARG	28.12122	36.21356	148	297.6239944	60	60	60	0.002160337	0.000357105	-3293641.62	-3293650.822	-3293641.4	-3293650.602	1	-0.702498207	-0.39029498	-0.938628322	-0.273046508	0.11201441	-0.830681866	0.157263713	-0.121445062	0.10801017	0.538623376	-0.229920928	0.108296396	-0.566003538	0.149018864	-0.178695094	0.099378435	0.499723041	1.498907075	0.118139703	-0.761466029	0.152585831	-0.13043653	0.110764729	0.650986653
441	2020/9/20T6:31:4.3	26.3846	35.0693	13	4.3	HL	ARG	28.12122	36.21356	148	202.5521841	60	60	60	0.000519269	2.77E-05	-3156689.39	-3156698.592	-3156689.45	-3156698.652	1	-1.32413759	-0.901698398	-2.789638322	-0.245863559	0.244243473	-0.830681866	0.157263713	-0.121445062	0.10801017	-0.110198955	-0.228255593	0.23659249	-0.566003538	0.149018864	-0.178695094	0.099378435	-0.013345712	0.235616257	0.251546784	-0.761466029	0.152585831	-0.13043653	0.110764729	0.063267471
476	2020/10/12T0:30:41.2	26.293	35.6314	21	5.1	HL	ARG	28.12122	36.21356	148	178.447294	59.99	60	60	0.002885798	0.000155316	-1277517.21	-1277526.412	-1277516.25	-1277525.452	1	-1.593556568	-1.131792125	-1.935272764	-0.868885145	0.104558228	-0.830681866	0.157263713	-0.121445062	0.10801017	0.243403652	-0.718689592	0.101010256	-0.566003538	0.149018864	-0.178695094	0.099378435	0.24699456	0.762958612	0.111240824	-0.761466029	0.152585831	-0.13043653	0.110764729	0.390290674
477	2020/10/12T0:44:26.5	26.3168	35.6003	27	4.4	HL	ARG	28.12122	36.21356	148	178.5974601	60	60	60	0.000556898	3.62E-05	-1276690.68	-1276699.882	-1276693	-1276702.202	1	-1.801951505	-1.361267265	-3.102268242	-0.138118991	0.145103528	-0.830681866	0.157263713	-0.121445062	0.10801017	-0.695757438	-0.023105317	0.140510509	-0.566003538	0.149018864	-0.178695094	0.099378435	-0.678064856	0.567691467	0.149660425	-0.761466029	0.152585831	-0.13043653	0.110764729	-0.581437659
478	2020/10/12T1:11:58.5	26.3113	35.6314	22	4.1	HL	ARG	28.12122	36.21356	148	177.0437016	60	60	60	0.000300621	1.30E-05	-1275038.86	-1275048.062	-1275062.36	-1275071.562	1	-1.794715627	-1.394213584	-3.583656459	-0.036606783	0.192228846	-0.830681866	0.157263713	-0.121445062	0.10801017	-0.790033768	0.029956555	0.186266417	-0.566003538	0.149018864	-0.178695094	0.099378435	-0.764073046	0.226734311	0.196779682	-0.761466029	0.152585831	-0.13043653	0.110764729	-0.72186872
480	2020/10/12T2:38:53.6	26.2921	35.6122	19	4.1	HL	ARG	28.12122	36.21356	148	179.0975974	60	60	60	0.0003176	1.54E-05	-1269823.12	-1269832.322	-1269824.89	-1269834.092	1	-1.710324613	-1.309920174	-3.499535035	-0.088105118	0.179097305	-0.830681866	0.157263713	-0.121445062	0.10801017	-0.65414442	-0.02074638	0.173537804	-0.566003538	0.149018864	-0.178695094	0.099378435	-0.629076701	0.168972904	0.183411771	-0.761466029	0.152585831	-0.13043653	0.110764729	-0.579985889
481	2020/10/12T4:11:27.9	26.2926	35.6319	8	5.2	HL	ARG	28.12122	36.21356	148	177.3898758	60	60	60	0.004058852	0.000199471	-1264271.04	-1264280.242	-1264271.35	-1264280.552	1	-1.409830645	-1.007749406	-1.68956107	-0.610439738	0.103953817	-0.830681866	0.157263713	-0.121445062	0.10801017	0.168684168	-0.500548741	0.100412146	-0.566003538	0.149018864	-0.178695094	0.099378435	0.152896428	1.103181701	0.110680821	-0.761466029	0.152585831	-0.13043653	0.110764729	0.295779279
483	2020/10/12T4:38:36.9	26.2766	35.6003	18	3.7	HL	ARG	28.12122	36.21356	148	180.7888746	60	60	60	0.000370726	1.14E-05	-1262643.28	-1262652.482	-1262643.25	-1262652.452	1	-0.669983407	-0.323501588	-3.155271446	0.526859813	0.224974311	-0.830681866	0.157263713	-0.121445062	0.10801017	-0.228768144	0.536386966	0.217962546	-0.566003538	0.149018864	-0.178695094	0.099378435	-0.199791461	0.20866413	0.23089966	-0.761466029	0.152585831	-0.13043653	0.110764729	-0.275413526
491	2020/10/14T22:22:49.9	26.3617	35.6195	12	4	HL	ARG	28.12122	36.21356	148	172.3726863	60	60	60	0.000558854	2.37E-05	-1025988.82	-1025998.022	-1025988.76	-1025997.962	1	-1.026923716	-0.639848638	-2.984616313	0.483845668	0.168438225	-0.830681866	0.157263713	-0.121445062	0.10801017	-0.542694309	0.546429163	0.163203881	-0.566003538	0.149018864	-0.178695094	0.099378435	-0.526180708	0.610530238	0.172686224	-0.761466029	0.152585831	-0.13043653	0.110764729	-0.506624501
504	2020/10/24T2:6:45.5	26.2793	35.5957	18	3.8	HL	ARG	28.12122	36.21356	148	180.761788	60	60	60	0.000383542	2.69E-05	-234951.94	-234961.1416	-234951.9	-234961.1016	1	-0.851777265	-0.491836447	-3.158379486	0.101932649	0.197341108	-0.830681866	0.157263713	-0.121445062	0.10801017	0.014365162	0.123600246	0.191220601	-0.566003538	0.149018864	-0.178695094	0.099378435	0.044660399	-0.110331504	0.20203096	-0.761466029	0.152585831	-0.13043653	0.110764729	0.040474068
127	2020/4/11T10:22:55.6	26.1795	35.2176	21	4.8	HA	ATAL	23.0213	38.6926	290	477.7256998	60	60	60	6.54E-05	5.31E-06	-17139550.13	-17139559.33	-17139549.01	-17139558.21	1	-1.318636737	-1.219827422	-2.310912536	-0.225334057	0.110173683	-0.730928056	0.243596479	-0.121445062	0.10801017	-0.224981414	-0.112820926	0.106491447	-0.804771469	0.233334095	-0.178695094	0.099378435	-0.208141471	1.008544521	0.116456224	-0.771292565	0.23618891	-0.13043653	0.110764729	-0.221108471
150	2020/5/2T12:51:9.2	25.6915	34.4366	9	6	HA	ATAL	23.0213	38.6926	290	529.3409278	60	60	60	0.000232881	6.87E-05	-15316241.81	-15316251.01	-15316241.36	-15316250.56	1	-1.691620721	-1.953370904	-1.657944321	-0.930147423	0.106111378	-0.730928056	0.243596479	-0.121445062	0.10801017	0.106847967	-1.180843283	0.102497743	-0.804771469	0.233334095	-0.178695094	0.099378435	0.126337403	1.292843971	0.112683034	-0.771292565	0.23618891	-0.13043653	0.110764729	0.147560294
153	2020/5/2T13:33:52.6	25.4242	34.3707	5	4.7	HA	ATAL	23.0213	38.6926	290	525.6309221	60	60	60	3.04E-05	3.89E-06	-15313689.94	-15313699.14	-15313688.1	-15313697.3	1	-1.403083299	-1.394438539	-2.592739302	-0.494701994	0.146451416	-0.730928056	0.243596479	-0.121445062	0.10801017	-0.04006004	-0.434426957	0.141806343	-0.804771469	0.233334095	-0.178695094	0.099378435	-0.061146557	0.550454075	0.151027598	-0.771292565	0.23618891	-0.13043653	0.110764729	-0.044844792
157	2020/5/2T16:44:31.3	25.6375	34.4577	5	4.8	HA	ATAL	23.0213	38.6926	290	525.0137006	60	60	60	3.68E-05	7.14E-06	-15302251.52	-15302260.72	-15302250.98	-15302260.18	1	-1.432161052	-1.409046614	-2.474149075	-0.245896595	0.11412002	-0.730928056	0.243596479	-0.121445062	0.10801017	-0.317943192	-0.194919121	0.110326472	-0.804771469	0.233334095	-0.178695094	0.099378435	-0.315262468	0.940341723	0.12013804	-0.771292565	0.23618891	-0.13043653	0.110764729	-0.316142212
184	2020/5/16T2:30:28.1	25.719	34.3469	8	4	HA	ATAL	23.0213	38.6926	290	539.3772774	60	60	60	1.45E-05	1.00E-06	-14143882.91	-14143892.11	-14143903.2	-14143912.4	1	-0.50556395	-0.613837906	-2.827361758	-0.030194475	0.132544136	-0.730928056	0.243596479	-0.121445062	0.10801017	0.392951791	-0.03559069	0.128296532	-0.804771469	0.233334095	-0.178695094	0.099378435	0.320617808	-0.033928878	0.137582008	-0.771292565	0.23618891	-0.13043653	0.110764729	0.304915706
190	2020/5/18T4:18:23.7	25.6998	34.4962	14	4.6	HA	ATAL	23.0213	38.6926	290	523.8620056	60	60	60	1.99E-05	3.78E-06	-13964608.55	-13964617.75	-13964601.59	-13964610.79	1	-1.626654546	-1.628567429	-2.964565425	-0.515807616	0.110764242	-0.730928056	0.243596479	-0.121445062	0.10801017	-0.242525664	-0.461402119	0.107071669	-0.804771469	0.233334095	-0.178695094	0.099378435	-0.268300285	0.400549135	0.117004469	-0.771292565	0.23618891	-0.13043653	0.110764729	-0.266765974
193	2020/5/18T11:48:9.0	25.6073	34.3121	15	4.5	HA	ATAL	23.0213	38.6926	290	538.6332224	60	60	60	2.36E-05	1.76E-06	-13937633.74	-13937642.94	-13937625.63	-13937634.83	1	-1.099228945	-1.138965189	-2.606385017	-0.655706001	0.140087429	-0.730928056	0.243596479	-0.121445062	0.10801017	0.424798322	-0.592341311	0.135626449	-0.804771469	0.233334095	-0.178695094	0.099378435	0.352241147	0.119249391	0.14483218	-0.771292565	0.23618891	-0.13043653	0.110764729	0.372714178
196	2020/5/18T23:22:37.2	25.5762	34.3066	7	5.2	HA	ATAL	23.0213	38.6926	290	537.8296581	60	60	60	6.52E-05	1.08E-05	-13895956.75	-13895965.95	-13895943.27	-13895952.47	1	-1.514399464	-1.54317176	-2.098244828	-0.826509415	0.104603435	-0.730928056	0.243596479	-0.121445062	0.10801017	0.180431216	-0.81379422	0.101050847	-0.804771469	0.233334095	-0.178695094	0.099378435	0.169487484	0.823476381	0.11129827	-0.771292565	0.23618891	-0.13043653	0.110764729	0.176627377
316	2020/6/19T7:43:22.0	25.5606	34.3295	8	4.6	HA	ATAL	23.0213	38.6926	290	534.937862	60	60	60	4.02E-05	4.46E-06	-11187505.28	-11187514.48	-11187536.99	-11187546.19	1	-0.817121995	-0.837273225	-2.166969614	-0.098974396	0.138576471	-0.730928056	0.243596479	-0.121445062	0.10801017	0.150173667	-0.085283974	0.13413432	-0.804771469	0.233334095	-0.178695094	0.099378435	0.146875773	0.783643284	0.143382198	-0.771292565	0.23618891	-0.13043653	0.110764729	0.147735688
127	2020/4/11T10:22:55.6	26.1795	35.2176	21	4.8	HL	ATH	23.71767	37.97384	93	377.4837669	60	60	60	0.000299389	8.23E-06	-17139564.02	-17139573.22	-17139574.41	-17139583.61	1	-0.894303482	-0.574001863	-1.713919672	-0.225334057	0.110173683	-0.960018634	0.233673183	-0.121445062	0.10801017	0.428442418	-0.112820926	0.106491447	-0.80732323	0.223763457	-0.178695094	0.099378435	0.440235849	1.008544521	0.116456224	-0.828376477	0.226542871	-0.13043653	0.110764729	0.432968304
150	2020/5/2T12:51:9.2	25.6915	34.4366	9	6	HL	ATH	23.71767	37.97384	93	430.8385829	60	60	60	0.000561133	0.000117151	-15316252.3	-15316261.5	-15316251.9	-15316261.1	1	-1.802661516	-1.891198461	-1.647144609	-0.930147423	0.106111378	-0.960018634	0.233673183	-0.121445062	0.10801017	0.22489775	-1.180843283	0.102497743	-0.80732323	0.223763457	-0.178695094	0.099378435	0.191061607	1.292843971	0.112683034	-0.828376477	0.226542871	-0.13043653	0.110764729	0.215443918
157	2020/5/2T16:44:31.3	25.6375	34.4577	5	4.8	HL	ATH	23.71767	37.97384	93	426.6457574	60	60	60	0.000146787	9.29E-06	-15302260.37	-15302269.57	-15302258.12	-15302267.32	1	-1.09748677	-0.845445683	-1.962637311	-0.245896595	0.11412002	-0.960018634	0.233673183	-0.121445062	0.10801017	0.245821668	-0.194919121	0.110326472	-0.80732323	0.223763457	-0.178695094	0.099378435	0.250890224	0.940341723	0.12013804	-0.828376477	0.226542871	-0.13043653	0.110764729	0.252453463
190	2020/5/18T4:18:23.7	25.6998	34.4962	14	4.6	HL	ATH	23.71767	37.97384	93	425.2452928	60	60	60	0.000107702	5.64E-06	-13964615.46	-13964624.66	-13964615.77	-13964624.97	1	-0.990588044	-0.763420891	-2.151623928	-0.515807616	0.110764242	-0.960018634	0.233673183	-0.121445062	0.10801017	0.622631415	-0.461402119	0.107071669	-0.80732323	0.223763457	-0.178695094	0.099378435	0.599398013	0.400549135	0.117004469	-0.828376477	0.226542871	-0.13043653	0.110764729	0.603259434
196	2020/5/18T23:22:37.2	25.5762	34.3066	7	5.2	HL	ATH	23.71767	37.97384	93	439.9908869	60	60	60	8.10E-05	1.70E-05	-13895962.73	-13895971.93	-13895981.24	-13895990.44	1	-2.323151385	-2.132491435	-2.740135624	-0.826509415	0.104603435	-0.960018634	0.233673183	-0.121445062	0.10801017	-0.399230127	-0.81379422	0.101050847	-0.80732323	0.223763457	-0.178695094	0.099378435	-0.41728043	0.823476381	0.11129827	-0.828376477	0.226542871	-0.13043653	0.110764729	-0.408179508
436	2020/9/18T16:28:18.6	25.2933	34.9338	52	5.3	HL	ATH	23.71767	37.97384	93	369.3961	60	60	60	0.000294701	2.94E-05	-3293631.28	-3293640.482	-3293652.14	-3293661.342	1	-1.914461678	-1.674649245	-2.196878563	-0.273046508	0.11201441	-0.960018634	0.233673183	-0.121445062	0.10801017	-0.544003327	-0.229920928	0.108296396	-0.80732323	0.223763457	-0.178695094	0.099378435	-0.543311532	1.498907075	0.118139703	-0.828376477	0.226542871	-0.13043653	0.110764729	-0.540353141
476	2020/10/12T0:30:41.2	26.293	35.6314	21	5.1	HL	ATH	23.71767	37.97384	93	347.5856037	60	60	60	0.000182173	1.10E-05	-1277495.22	-1277504.422	-1277497.01	-1277506.212	1	-2.303229269	-1.958691561	-2.728863806	-0.868885145	0.104558228	-0.960018634	0.233673183	-0.121445062	0.10801017	-0.336932281	-0.718689592	0.101010256	-0.80732323	0.223763457	-0.178695094	0.099378435	-0.338585183	0.762958612	0.111240824	-0.828376477	0.226542871	-0.13043653	0.110764729	-0.33638992
481	2020/10/12T4:11:27.9	26.2926	35.6319	8	5.2	HL	ATH	23.71767	37.97384	93	346.9737187	60	60	60	0.000302231	1.75E-05	-1264251.95	-1264261.152	-1264263.67	-1264272.872	1	-1.964488205	-1.660293126	-2.309575337	-0.610439738	0.103953817	-0.960018634	0.233673183	-0.121445062	0.10801017	-0.256636623	-0.500548741	0.100412146	-0.80732323	0.223763457	-0.178695094	0.099378435	-0.2583276	1.103181701	0.110680821	-0.828376477	0.226542871	-0.13043653	0.110764729	-0.25732454
127	2020/4/11T10:22:55.6	26.1795	35.2176	21	4.8	HA	ATHU	23.7845	37.9665	308	373.3799983	60	60	60	0.000105484	5.40E-06	-17139582.08	-17139591.28	-17139582.3	-17139591.5	1	-1.923228544	-1.655237914	-2.796926859	-0.225334057	0.110173683	-1.40133851	0.233899236	-0.121445062	0.10801017	-0.159162768	-0.112820926	0.106491447	-1.295210933	0.223979492	-0.178695094	0.099378435	-0.1531125	1.008544521	0.116456224	-1.317229802	0.226766728	-0.13043653	0.110764729	-0.161185558
150	2020/5/2T12:51:9.2	25.6915	34.4366	9	6	HA	ATHU	23.7845	37.9665	308	427.6613011	60	60	60	0.000233192	7.06E-05	-15316266.25	-15316275.45	-15316264.98	-15316274.18	1	-2.65336268	-2.796949818	-2.554410493	-0.930147423	0.106111378	-1.40133851	0.233899236	-0.121445062	0.10801017	-0.184483538	-1.180843283	0.102497743	-1.295210933	0.223979492	-0.178695094	0.099378435	-0.226802047	1.292843971	0.112683034	-1.317229802	0.226766728	-0.13043653	0.110764729	-0.202968641
153	2020/5/2T13:33:52.6	25.4242	34.3707	5	4.7	HA	ATHU	23.7845	37.9665	308	425.4085221	60	60	60	5.18E-05	2.95E-06	-15313705.17	-15313714.37	-15313694.46	-15313703.66	1	-1.879010809	-1.696339745	-2.947726899	-0.494701994	0.146451416	-1.40133851	0.233899236	-0.121445062	0.10801017	0.154422904	-0.434426957	0.141806343	-1.295210933	0.223979492	-0.178695094	0.099378435	0.1273917	0.550454075	0.151027598	-1.317229802	0.226766728	-0.13043653	0.110764729	0.146104848
157	2020/5/2T16:44:31.3	25.6375	34.4577	5	4.8	HA	ATHU	23.7845	37.9665	308	423.5087721	60	60	60	6.99E-05	5.22E-06	-15302252.04	-15302261.24	-15302253.33	-15302262.53	1	-1.813380602	-1.614508684	-2.733226842	-0.245896595	0.11412002	-1.40133851	0.233899236	-0.121445062	0.10801017	-0.028752288	-0.194919121	0.110326472	-1.295210933	0.223979492	-0.178695094	0.099378435	-0.030285075	0.940341723	0.12013804	-1.317229802	0.226766728	-0.13043653	0.110764729	-0.029282743
