eventname	origintime	hyplon	hyplat	hypdepth (km)	mw	network	station	stlon	stlat	stelev	hypdist	duration_e	duration_n	duration_horiz	pga	pgv	tPGV_origin	tPGV_parriv	tPGA_origin	tPGA_parriv	polygon	ask14	sk13	z16	ask14_dE	ask14_dE_std	ask14_dS	ask14_dS_std	ask14_dPol	ask14_dPol_std	ask14_dP	sk13_dE	sk13_dE_std	sk13_dS	sk13_dS_std	sk13_dPol	sk13_dPol_std	sk13_dP	z16_dE	z16_dE_std	z16_dS	z16_dS_std	z16_dPol	z16_dPol_std	z16_dP
184	2020/5/16T2:30:28.1	25.719	34.3469	8	4	HT	EVGI	20.656	38.621	249	656.1676127	60	60	60	5.99E-05	1.70E-06	-14143889.86	-14143899.06	-14143889.91	-14143899.11	1	2.228851816	2.308801821	-0.215637847	-0.030194475	0.132544136	1.957083097	0.187954449	-0.121445062	0.10801017	0.439356404	-0.03559069	0.128296532	2.054896836	0.179364766	-0.178695094	0.099378435	0.383589229	-0.033928878	0.137582008	1.785416622	0.181844852	-0.13043653	0.110764729	0.359930429
190	2020/5/18T4:18:23.7	25.6998	34.4962	14	4.6	HT	EVGI	20.656	38.621	249	642.9028763	60	60	60	7.11E-05	3.23E-06	-13964583.32	-13964592.52	-13964611.51	-13964620.71	1	0.986572582	1.171119962	-0.475426004	-0.515807616	0.110764242	1.957083097	0.187954449	-0.121445062	0.10801017	-0.317309689	-0.461402119	0.107071669	2.054896836	0.179364766	-0.178695094	0.099378435	-0.3282812	0.400549135	0.117004469	1.785416622	0.181844852	-0.13043653	0.110764729	-0.334335741
196	2020/5/18T23:22:37.2	25.5762	34.3066	7	5.2	HT	EVGI	20.656	38.621	249	650.7449404	60	60	60	0.000159938	7.71E-06	-13895943.77	-13895952.97	-13895950.38	-13895959.58	1	0.650911573	0.828053663	-0.040826743	-0.826509415	0.104603435	1.957083097	0.187954449	-0.121445062	0.10801017	-0.342268899	-0.81379422	0.101050847	2.054896836	0.179364766	-0.178695094	0.099378435	-0.318955399	0.823476381	0.11129827	1.785416622	0.181844852	-0.13043653	0.110764729	-0.322663726
317	2020/6/19T20:34:11.9	25.5322	34.5557	30	4.4	HT	EVGI	20.656	38.621	249	628.1668561	60	60	60	0.000221652	3.62E-06	-11141273.06	-11141282.26	-11141273.05	-11141282.25	1	2.418859771	2.602745899	0.664206	-0.16009215	0.147186193	1.957083097	0.187954449	-0.121445062	0.10801017	0.759262034	-0.097269299	0.142537541	2.054896836	0.179364766	-0.178695094	0.099378435	0.739211917	0.488463149	0.151742973	1.785416622	0.181844852	-0.13043653	0.110764729	0.717382249
318	2020/6/19T21:17:15.2	25.5542	34.5483	15	4.5	HT	EVGI	20.656	38.621	249	629.5946823	60	60	60	0.0001332	2.14E-06	-11138688.61	-11138697.81	-11138686.11	-11138695.31	1	1.707368681	1.902180988	0.10750455	-0.398291969	0.154560632	1.957083097	0.187954449	-0.121445062	0.10801017	0.285970763	-0.313895484	0.1497064	2.054896836	0.179364766	-0.178695094	0.099378435	0.25527319	0.405278012	0.158960249	1.785416622	0.181844852	-0.13043653	0.110764729	0.243865937
436	2020/9/18T16:28:18.6	25.2933	34.9338	52	5.3	HT	EVGI	20.656	38.621	249	584.2449185	60	60	60	0.000602697	1.82E-05	-3293606	-3293615.202	-3293616.96	-3293626.162	1	1.192703558	1.454058446	0.662164951	-0.273046508	0.11201441	1.957083097	0.187954449	-0.121445062	0.10801017	-0.353939822	-0.229920928	0.108296396	2.054896836	0.179364766	-0.178695094	0.099378435	-0.276823908	1.498907075	0.118139703	1.785416622	0.181844852	-0.13043653	0.110764729	-0.295102726
476	2020/10/12T0:30:41.2	26.293	35.6314	21	5.1	HT	EVGI	20.656	38.621	249	601.0273725	60	60	60	0.000211279	5.48E-06	-1277459.21	-1277468.412	-1277477.86	-1277487.062	1	0.650690694	0.937443855	-0.083096814	-0.868885145	0.104558228	1.957083097	0.187954449	-0.121445062	0.10801017	-0.300114048	-0.718689592	0.101010256	2.054896836	0.179364766	-0.178695094	0.099378435	-0.304669834	0.762958612	0.111240824	1.785416622	0.181844852	-0.13043653	0.110764729	-0.304416027
481	2020/10/12T4:11:27.9	26.2926	35.6319	8	5.2	HT	EVGI	20.656	38.621	249	600.6466949	60	60	60	0.000277902	8.12E-06	-1264230.21	-1264239.412	-1264232.71	-1264241.912	1	0.745256044	1.00671454	0.106884617	-0.610439738	0.103953817	1.957083097	0.187954449	-0.121445062	0.10801017	-0.463994105	-0.500548741	0.100412146	2.054896836	0.179364766	-0.178695094	0.099378435	-0.453540001	1.103181701	0.110680821	1.785416622	0.181844852	-0.13043653	0.110764729	-0.454657685
127	2020/4/11T10:22:55.6	26.1795	35.2176	21	4.8	HL	EVR	21.8105	38.91657	1037	565.5127305	60	60	60	4.57E-05	5.69E-06	-17139535.43	-17139544.63	-17139545.71	-17139554.91	1	-0.593396398	-0.260664047	-1.684156922	-0.225334057	0.110173683	-0.048296152	0.233651048	-0.121445062	0.10801017	-0.18237298	-0.112820926	0.106491447	0.123279483	0.223744469	-0.178695094	0.099378435	-0.177029048	1.008544521	0.116456224	-0.156435591	0.226514871	-0.13043653	0.110764729	-0.209209832
150	2020/5/2T12:51:9.2	25.6915	34.4366	9	6	HL	EVR	21.8105	38.91657	1037	606.1574696	60	60	60	0.000207621	4.18E-05	-15316220.42	-15316229.62	-15316243.5	-15316252.7	1	-0.880833128	-0.858669289	-0.900313754	-0.930147423	0.106111378	-0.048296152	0.233651048	-0.121445062	0.10801017	0.235003656	-1.180843283	0.102497743	0.123279483	0.223744469	-0.178695094	0.099378435	0.292988066	1.292843971	0.112683034	-0.156435591	0.226514871	-0.13043653	0.110764729	0.290333887
157	2020/5/2T16:44:31.3	25.6375	34.4577	5	4.8	HL	EVR	21.8105	38.91657	1037	601.4066494	60	60	60	5.72E-05	7.38E-06	-15302230.08	-15302239.28	-15302244.31	-15302253.51	1	-0.030780793	0.24015984	-1.161835869	-0.245896595	0.11412002	-0.048296152	0.233651048	-0.121445062	0.10801017	0.400805163	-0.194919121	0.110326472	0.123279483	0.223744469	-0.178695094	0.099378435	0.405893033	0.940341723	0.12013804	-0.156435591	0.226514871	-0.13043653	0.110764729	0.381314019
190	2020/5/18T4:18:23.7	25.6998	34.4962	14	4.6	HL	EVR	21.8105	38.91657	1037	601.2051465	60	60	60	2.22E-05	3.95E-06	-13964598	-13964607.2	-13964613.82	-13964623.02	1	-0.548073505	-0.303699622	-1.976015828	-0.515807616	0.110764242	-0.048296152	0.233651048	-0.121445062	0.10801017	0.153423472	-0.461402119	0.107071669	0.123279483	0.223744469	-0.178695094	0.099378435	0.128516569	0.400549135	0.117004469	-0.156435591	0.226514871	-0.13043653	0.110764729	0.106926648
196	2020/5/18T23:22:37.2	25.5762	34.3066	7	5.2	HL	EVR	21.8105	38.91657	1037	612.4425474	60	60	60	4.93E-05	1.06E-05	-13895938.83	-13895948.03	-13895938.44	-13895947.64	1	-0.861645104	-0.633614046	-1.526260366	-0.826509415	0.104603435	-0.048296152	0.233651048	-0.121445062	0.10801017	0.150553672	-0.81379422	0.101050847	0.123279483	0.223744469	-0.178695094	0.099378435	0.150994246	0.823476381	0.11129827	-0.156435591	0.226514871	-0.13043653	0.110764729	0.133754864
476	2020/10/12T0:30:41.2	26.293	35.6314	21	5.1	HL	EVR	21.8105	38.91657	1037	539.7421829	60	60	60	5.20E-05	6.83E-06	-1277470.74	-1277479.942	-1277466.66	-1277475.862	1	-1.312657838	-0.938282703	-1.995022161	-0.868885145	0.104558228	-0.048296152	0.233651048	-0.121445062	0.10801017	-0.258083332	-0.718689592	0.101010256	0.123279483	0.223744469	-0.178695094	0.099378435	-0.248779039	0.762958612	0.111240824	-0.156435591	0.226514871	-0.13043653	0.110764729	-0.274489161
481	2020/10/12T4:11:27.9	26.2926	35.6319	8	5.2	HL	EVR	21.8105	38.91657	1037	539.3032797	60	60	60	6.66E-05	9.04E-06	-1264217.06	-1264226.262	-1264227.91	-1264237.112	1	-1.242812348	-0.89663331	-1.832653521	-0.610439738	0.103953817	-0.048296152	0.233651048	-0.121445062	0.10801017	-0.446683249	-0.500548741	0.100412146	0.123279483	0.223744469	-0.178695094	0.099378435	-0.425270497	1.103181701	0.110680821	-0.156435591	0.226514871	-0.13043653	0.110764729	-0.45234361
127	2020/4/11T10:22:55.6	26.1795	35.2176	21	4.8	HP	FSK	20.5623	38.4593	113	616.9800888	60	60	60	5.32E-05	4.34E-06	-17139520.86	-17139530.06	-17139537.12	-17139546.32	1	-0.195412642	-0.329711581	-1.340391128	-0.225334057	0.110173683	0.683990646	0.266953224	-0.121445062	0.10801017	-0.516676022	-0.112820926	0.106491447	0.404035638	0.255773982	-0.178695094	0.099378435	-0.526832737	1.008544521	0.116456224	0.504058936	0.258840501	-0.13043653	0.110764729	-0.525938565
150	2020/5/2T12:51:9.2	25.6915	34.4366	9	6	HP	FSK	20.5623	38.4593	113	640.7166908	60	60	60	0.000379996	3.84E-05	-15316220.59	-15316229.79	-15316245.28	-15316254.48	1	-0.209165251	-0.610824442	-0.249544548	-0.930147423	0.106111378	0.683990646	0.266953224	-0.121445062	0.10801017	0.174384735	-1.180843283	0.102497743	0.404035638	0.255773982	-0.178695094	0.099378435	0.260076758	1.292843971	0.112683034	0.504058936	0.258840501	-0.13043653	0.110764729	0.280608566
190	2020/5/18T4:18:23.7	25.6998	34.4962	14	4.6	HP	FSK	20.5623	38.4593	113	636.6343313	60	60	60	3.59E-05	4.03E-06	-13964583.16	-13964592.36	-13964611.45	-13964620.65	1	0.022478083	-0.173577194	-1.4422564	-0.515807616	0.110764242	0.683990646	0.266953224	-0.121445062	0.10801017	-0.008311737	-0.461402119	0.107071669	0.404035638	0.255773982	-0.178695094	0.099378435	-0.022117158	0.400549135	0.117004469	0.504058936	0.258840501	-0.13043653	0.110764729	-0.019808451
193	2020/5/18T11:48:9.0	25.6073	34.3121	15	4.5	HP	FSK	20.5623	38.4593	113	645.4629032	60	60	60	2.00E-05	1.41E-06	-13937609.3	-13937618.5	-13937622.74	-13937631.94	1	-0.267536896	-0.492835913	-1.895802513	-0.655706001	0.140087429	0.683990646	0.266953224	-0.121445062	0.10801017	-0.158428331	-0.592341311	0.135626449	0.404035638	0.255773982	-0.178695094	0.099378435	-0.210436684	0.119249391	0.14483218	0.504058936	0.258840501	-0.13043653	0.110764729	-0.19205482
196	2020/5/18T23:22:37.2	25.5762	34.3066	7	5.2	HP	FSK	20.5623	38.4593	113	643.8212527	60	60	60	8.23E-05	6.37E-06	-13895928.01	-13895937.21	-13895956.92	-13895966.12	1	-0.299525347	-0.5023509	-0.993784642	-0.826509415	0.104603435	0.683990646	0.266953224	-0.121445062	0.10801017	-0.019613369	-0.81379422	0.101050847	0.404035638	0.255773982	-0.178695094	0.099378435	0.001501237	0.823476381	0.11129827	0.504058936	0.258840501	-0.13043653	0.110764729	0.005736061
127	2020/4/11T10:22:55.6	26.1795	35.2176	21	4.8	HT	GRG	22.401	40.957	560	718.2745118	60	60	60	0.000931952	5.74E-06	-17139524.32	-17139533.52	-17139524.19	-17139533.39	1	3.818210414	3.886458881	2.558446732	-0.225334057	0.110173683	2.46722037	0.253941466	-0.121445062	0.10801017	1.713717311	-0.112820926	0.106491447	2.353039535	0.243294527	-0.178695094	0.099378435	1.740333828	1.008544521	0.116456224	2.176451651	0.246221914	-0.13043653	0.110764729	1.700506581
150	2020/5/2T12:51:9.2	25.6915	34.4366	9	6	HT	GRG	22.401	40.957	560	779.6116047	60	60	60	0.000141332	4.19E-05	-15316199.9	-15316209.1	-15316199.46	-15316208.66	1	0.225866382	0.007292569	0.076585913	-0.930147423	0.106111378	2.46722037	0.253941466	-0.121445062	0.10801017	-1.173813356	-1.180843283	0.102497743	2.353039535	0.243294527	-0.178695094	0.099378435	-1.070810128	1.292843971	0.112683034	2.176451651	0.246221914	-0.13043653	0.110764729	-1.065653687
153	2020/5/2T13:33:52.6	25.4242	34.3707	5	4.7	HT	GRG	22.401	40.957	560	778.0375772	60	60	60	3.97E-05	2.73E-06	-15313641.35	-15313650.55	-15313638.99	-15313648.19	1	1.410606086	1.352845133	-0.068916191	-0.494701994	0.146451416	2.46722037	0.253941466	-0.121445062	0.10801017	-0.424519081	-0.434426957	0.141806343	2.353039535	0.243294527	-0.178695094	0.099378435	-0.471673889	0.550454075	0.151027598	2.176451651	0.246221914	-0.13043653	0.110764729	-0.468765896
157	2020/5/2T16:44:31.3	25.6375	34.4577	5	4.8	HT	GRG	22.401	40.957	560	775.6270101	60	60	60	0.000148964	5.02E-06	-15302218.12	-15302227.32	-15302222.12	-15302231.32	1	2.495225961	2.455517072	1.165617556	-0.245896595	0.11412002	2.46722037	0.253941466	-0.121445062	0.10801017	0.411295395	-0.194919121	0.110326472	2.353039535	0.243294527	-0.178695094	0.099378435	0.391490214	0.940341723	0.12013804	2.176451651	0.246221914	-0.13043653	0.110764729	0.375880203
190	2020/5/18T4:18:23.7	25.6998	34.4962	14	4.6	HT	GRG	22.401	40.957	560	773.7892381	60	60	60	0.000169214	3.30E-06	-13964580.85	-13964590.05	-13964612.39	-13964621.59	1	3.037232925	2.974100238	1.412836386	-0.515807616	0.110764242	2.46722037	0.253941466	-0.121445062	0.10801017	1.223213381	-0.461402119	0.107071669	2.353039535	0.243294527	-0.178695094	0.099378435	1.176556377	0.400549135	0.117004469	2.176451651	0.246221914	-0.13043653	0.110764729	1.162891621
196	2020/5/18T23:22:37.2	25.5762	34.3066	7	5.2	HT	GRG	22.401	40.957	560	789.4229937	60	60	60	8.55E-05	7.38E-06	-13895921.75	-13895930.95	-13895948.65	-13895957.85	1	1.263597364	1.187925599	0.409759432	-0.826509415	0.104603435	2.46722037	0.253941466	-0.121445062	0.10801017	-0.239720382	-0.81379422	0.101050847	2.353039535	0.243294527	-0.178695094	0.099378435	-0.257226161	0.823476381	0.11129827	2.176451651	0.246221914	-0.13043653	0.110764729	-0.263112579
436	2020/9/18T16:28:18.6	25.2933	34.9338	52	5.3	HT	GRG	22.401	40.957	560	717.0620875	60	60	60	0.000298736	2.91E-05	-3293588.11	-3293597.312	-3293578.68	-3293587.882	1	1.696216618	1.73043101	1.021866067	-0.273046508	0.11201441	2.46722037	0.253941466	-0.121445062	0.10801017	-0.360564035	-0.229920928	0.108296396	2.353039535	0.243294527	-0.178695094	0.099378435	-0.298594042	1.498907075	0.118139703	2.176451651	0.246221914	-0.13043653	0.110764729	-0.326436638
476	2020/10/12T0:30:41.2	26.293	35.6314	21	5.1	HT	GRG	22.401	40.957	560	682.3434827	60	60	60	0.000336777	8.75E-06	-1277456.07	-1277465.272	-1277439.94	-1277449.142	1	1.865815842	2.005115055	1.035394523	-0.868885145	0.104558228	2.46722037	0.253941466	-0.121445062	0.10801017	0.404873826	-0.718689592	0.101010256	2.353039535	0.243294527	-0.178695094	0.099378435	0.464858668	0.762958612	0.111240824	2.176451651	0.246221914	-0.13043653	0.110764729	0.423040282
481	2020/10/12T4:11:27.9	26.2926	35.6319	8	5.2	HT	GRG	22.401	40.957	560	681.9904398	60	60	60	0.000396437	1.36E-05	-1264208.31	-1264217.512	-1264244.63	-1264253.832	1	1.846237461	1.96371965	1.114683696	-0.610439738	0.103953817	2.46722037	0.253941466	-0.121445062	0.10801017	0.126850039	-0.500548741	0.100412146	2.353039535	0.243294527	-0.178695094	0.099378435	0.205322411	1.103181701	0.110680821	2.176451651	0.246221914	-0.13043653	0.110764729	0.162106366
71	2020/2/7T3:11:48.1	26.5741	35.1654	5	4.5	HP	GUR	22.3423	37.9363	1087	487.892814	60	60	60	0.000558329	1.22E-05	-22695024.68	-22695033.88	-22695027.36	-22695036.56	1	1.826030867	2.229675653	0.352122319	0.182106898	0.234443006	0.577000739	0.14860244	-0.121445062	0.10801017	1.20431644	0.253891132	0.227111951	0.886723539	0.140668813	-0.178695094	0.099378435	1.183154537	0.967705972	0.241008366	0.489488909	0.143048309	-0.13043653	0.110764729	1.221983459
105	2020/3/21T18:58:34.2	25.8925	35.5376	10	3.7	HP	GUR	22.3423	37.9363	1087	414.0994615	60	60	60	6.52E-05	2.42E-06	-18923026.94	-18923036.14	-18923031.44	-18923040.64	1	0.661308373	1.068239092	-2.079597796	0.690953562	0.183445759	0.577000739	0.14860244	-0.121445062	0.10801017	-0.469252719	0.695828381	0.177746643	0.886723539	0.140668813	-0.178695094	0.099378435	-0.420219273	0.304212402	0.187826546	0.489488909	0.143048309	-0.13043653	0.110764729	-0.546243086
127	2020/4/11T10:22:55.6	26.1795	35.2176	21	4.8	HP	GUR	22.3423	37.9363	1087	457.583254	60	60	60	0.000265141	2.20E-05	-17139556.92	-17139566.12	-17139554.99	-17139564.19	1	0.135403311	0.626376355	-0.857060588	-0.225334057	0.110173683	0.577000739	0.14860244	-0.121445062	0.10801017	-0.078870161	-0.112820926	0.106491447	0.886723539	0.140668813	-0.178695094	0.099378435	-0.053432702	1.008544521	0.116456224	0.489488909	0.143048309	-0.13043653	0.110764729	-0.028037997
144	2020/4/25T10:48:35.6	24.0335	34.866	14	3.9	HP	GUR	22.3423	37.9363	1087	373.2357962	60	60	60	0.000195441	5.20E-06	-15928426.98	-15928436.18	-15928430.44	-15928439.64	1	0.902642945	1.392342787	-1.447087961	0.585431076	0.210570382	0.577000739	0.14860244	-0.121445062	0.10801017	-0.122395661	0.565576142	0.204014677	0.886723539	0.140668813	-0.178695094	0.099378435	0.034136661	0.497727305	0.215766298	0.489488909	0.143048309	-0.13043653	0.110764729	-0.107248154
150	2020/5/2T12:51:9.2	25.6915	34.4366	9	6	HP	GUR	22.3423	37.9363	1087	491.5115657	60	60	60	0.000647154	8.73E-05	-15316242.18	-15316251.38	-15316252.55	-15316261.75	1	-0.76217131	-0.622012016	-0.729025228	-0.930147423	0.106111378	0.577000739	0.14860244	-0.121445062	0.10801017	-0.271631417	-1.180843283	0.102497743	0.886723539	0.140668813	-0.178695094	0.099378435	-0.233798717	1.292843971	0.112683034	0.489488909	0.143048309	-0.13043653	0.110764729	-0.184302087
153	2020/5/2T13:33:52.6	25.4242	34.3707	5	4.7	HP	GUR	22.3423	37.9363	1087	483.1323958	60	60	60	0.000167475	1.07E-05	-15313682.38	-15313691.58	-15313676.7	-15313685.9	1	0.144386851	0.582436895	-1.021113235	-0.494701994	0.146451416	0.577000739	0.14860244	-0.121445062	0.10801017	0.199481315	-0.434426957	0.141806343	0.886723539	0.140668813	-0.178695094	0.099378435	0.224233869	0.550454075	0.151027598	0.489488909	0.143048309	-0.13043653	0.110764729	0.265999801
157	2020/5/2T16:44:31.3	25.6375	34.4577	5	4.8	HP	GUR	22.3423	37.9363	1087	486.6041508	60	60	60	0.00022013	1.32E-05	-15302245.69	-15302254.89	-15302265.91	-15302275.11	1	0.236478937	0.682526895	-0.785592004	-0.245896595	0.11412002	0.577000739	0.14860244	-0.121445062	0.10801017	0.042768002	-0.194919121	0.110326472	0.886723539	0.140668813	-0.178695094	0.099378435	0.084816032	0.940341723	0.12013804	0.489488909	0.143048309	-0.13043653	0.110764729	0.111633385
184	2020/5/16T2:30:28.1	25.719	34.3469	8	4	HP	GUR	22.3423	37.9363	1087	500.9870628	60	60	60	8.33E-05	2.91E-06	-14143890.12	-14143899.32	-14143919.7	-14143928.9	1	1.128214931	1.443747878	-1.173231403	-0.030194475	0.132544136	0.577000739	0.14860244	-0.121445062	0.10801017	0.718801877	-0.03559069	0.128296532	0.886723539	0.140668813	-0.178695094	0.099378435	0.686708584	-0.033928878	0.137582008	0.489488909	0.143048309	-0.13043653	0.110764729	0.698264587
190	2020/5/18T4:18:23.7	25.6998	34.4962	14	4.6	HP	GUR	22.3423	37.9363	1087	486.8280358	60	60	60	0.000254606	8.28E-06	-13964605.54	-13964614.74	-13964646.18	-13964655.38	1	0.81495972	1.2337413	-0.504529133	-0.515807616	0.110764242	0.577000739	0.14860244	-0.121445062	0.10801017	0.891159807	-0.461402119	0.107071669	0.886723539	0.140668813	-0.178695094	0.099378435	0.902513435	0.400549135	0.117004469	0.489488909	0.143048309	-0.13043653	0.110764729	0.932488844
193	2020/5/18T11:48:9.0	25.6073	34.3121	15	4.5	HP	GUR	22.3423	37.9363	1087	498.284736	60	60	60	8.44E-05	3.71E-06	-13937629.18	-13937638.38	-13937630.48	-13937639.68	1	0.037803741	0.424956096	-1.446934415	-0.655706001	0.140087429	0.577000739	0.14860244	-0.121445062	0.10801017	0.253902213	-0.592341311	0.135626449	0.886723539	0.140668813	-0.178695094	0.099378435	0.224667423	0.119249391	0.14483218	0.489488909	0.143048309	-0.13043653	0.110764729	0.271383306
196	2020/5/18T23:22:37.2	25.5762	34.3066	7	5.2	HP	GUR	22.3423	37.9363	1087	496.9455076	60	60	60	0.000190841	2.19E-05	-13895955.06	-13895964.26	-13895955.15	-13895964.35	1	-0.577765301	-0.183197862	-1.142891841	-0.826509415	0.104603435	0.577000739	0.14860244	-0.121445062	0.10801017	-0.190863416	-0.81379422	0.101050847	0.886723539	0.140668813	-0.178695094	0.099378435	-0.162033626	0.823476381	0.11129827	0.489488909	0.143048309	-0.13043653	0.110764729	-0.12880111
316	2020/6/19T7:43:22.0	25.5606	34.3295	8	4.6	HP	GUR	22.3423	37.9363	1087	494.0585796	60	60	60	0.000129327	6.75E-06	-11187509.31	-11187518.51	-11187508.23	-11187517.43	1	0.208390137	0.615730494	-1.118616041	-0.098974396	0.138576471	0.577000739	0.14860244	-0.121445062	0.10801017	-0.132242996	-0.085283974	0.13413432	0.886723539	0.140668813	-0.178695094	0.099378435	-0.091615516	0.783643284	0.143382198	0.489488909	0.143048309	-0.13043653	0.110764729	-0.064692213
317	2020/6/19T20:34:11.9	25.5322	34.5557	30	4.4	HP	GUR	22.3423	37.9363	1087	473.0974776	60	60	60	0.000126924	5.84E-06	-11141264.4	-11141273.6	-11141285.52	-11141294.72	1	0.414393143	0.827722756	-1.200769196	-0.16009215	0.147186193	0.577000739	0.14860244	-0.121445062	0.10801017	0.134877763	-0.097269299	0.142537541	0.886723539	0.140668813	-0.178695094	0.099378435	0.132362071	0.488463149	0.151742973	0.489488909	0.143048309	-0.13043653	0.110764729	0.148334767
