eventname	origintime	hyplon	hyplat	hypdepth (km)	mw	network	station	stlon	stlat	stelev	hypdist	duration_e	duration_n	duration_horiz	pga	pgv	tPGV_origin	tPGV_parriv	tPGA_origin	tPGA_parriv	polygon	ask14	sk13	z16	ask14_dE	ask14_dE_std	ask14_dS	ask14_dS_std	ask14_dPol	ask14_dPol_std	ask14_dP	sk13_dE	sk13_dE_std	sk13_dS	sk13_dS_std	sk13_dPol	sk13_dPol_std	sk13_dP	z16_dE	z16_dE_std	z16_dS	z16_dS_std	z16_dPol	z16_dPol_std	z16_dP
318	2020/6/19T21:17:15.2	25.5542	34.5483	15	4.5	HP	GUR	22.3423	37.9363	1087	474.2093548	60	60	60	0.00010997	5.35E-06	-11138681.46	-11138690.66	-11138693.8	-11138703	1	0.066607683	0.491670514	-1.393217668	-0.398291969	0.154560632	0.577000739	0.14860244	-0.121445062	0.10801017	0.025292123	-0.313895484	0.1497064	0.886723539	0.140668813	-0.178695094	0.099378435	0.012936014	0.405278012	0.158960249	0.489488909	0.143048309	-0.13043653	0.110764729	0.039071432
337	2020/6/28T11:18:35.0	26.6757	35.5289	8	4.4	HP	GUR	22.3423	37.9363	1087	470.3117666	60	60	60	0.000132065	5.71E-06	-10397019.74	-10397028.94	-10397019.83	-10397029.03	1	0.426531774	0.844172734	-1.185793359	-0.007932511	0.176900345	0.577000739	0.14860244	-0.121445062	0.10801017	-0.005143244	0.062978717	0.171382307	0.886723539	0.140668813	-0.178695094	0.099378435	-0.011435967	0.645813932	0.181209306	0.489488909	0.143048309	-0.13043653	0.110764729	0.005959821
345	2020/6/30T0:44:37.5	26.6876	35.5499	10	4	HP	GUR	22.3423	37.9363	1087	469.8695324	60	60	60	0.00010244	2.00E-06	-10262253.64	-10262262.84	-10262286.91	-10262296.11	1	1.029727767	1.394212333	-1.239585095	0.370806135	0.233531595	0.577000739	0.14860244	-0.121445062	0.10801017	0.219314103	0.405467884	0.226241941	0.886723539	0.140668813	-0.178695094	0.099378435	0.196114465	0.491696097	0.240011341	0.489488909	0.143048309	-0.13043653	0.110764729	0.10628592
436	2020/9/18T16:28:18.6	25.2933	34.9338	52	5.3	HP	GUR	22.3423	37.9363	1087	428.7119639	60	60	60	0.000771946	5.75E-05	-3293626.37	-3293635.572	-3293632.76	-3293641.962	1	-0.017611672	0.437605147	-0.439468837	-0.273046508	0.11201441	0.577000739	0.14860244	-0.121445062	0.10801017	-0.184172694	-0.229920928	0.108296396	0.886723539	0.140668813	-0.178695094	0.099378435	-0.125103909	1.498907075	0.118139703	0.489488909	0.143048309	-0.13043653	0.110764729	-0.1008088
441	2020/9/20T6:31:4.3	26.3846	35.0693	13	4.3	HP	GUR	22.3423	37.9363	1087	482.1515284	60	60	60	0.00022662	4.82E-06	-3156669.66	-3156678.862	-3156649.35	-3156658.552	1	1.298761992	1.684518135	-0.48530492	-0.245863559	0.244243473	0.577000739	0.14860244	-0.121445062	0.10801017	1.105018022	-0.228255593	0.23659249	0.886723539	0.140668813	-0.178695094	0.099378435	1.120143744	0.235616257	0.251546784	0.489488909	0.143048309	-0.13043653	0.110764729	1.116645935
446	2020/9/24T18:52:14.0	25.9195	35.2927	16	4.1	HP	GUR	22.3423	37.9363	1087	434.3973005	60	60	60	0.000356344	4.90E-06	-2766596.15	-2766605.352	-2766595.81	-2766605.012	1	1.705757828	2.137191205	-0.35919907	0.541387096	0.169266907	0.577000739	0.14860244	-0.121445062	0.10801017	0.724763203	0.576252118	0.163985278	0.886723539	0.140668813	-0.178695094	0.099378435	0.768309103	0.782007589	0.173513417	0.489488909	0.143048309	-0.13043653	0.110764729	0.696360453
447	2020/9/24T21:22:54.1	25.9177	35.3036	14	3.8	HP	GUR	22.3423	37.9363	1087	433.3723876	60	60	60	5.32E-05	2.22E-06	-2757563.52	-2757572.722	-2757559.5	-2757568.702	1	0.440113761	0.832665125	-2.140631434	0.543580971	0.203042987	0.577000739	0.14860244	-0.121445062	0.10801017	-0.543074739	0.513278234	0.196742177	0.886723539	0.140668813	-0.178695094	0.099378435	-0.473243093	0.311534022	0.207922141	0.489488909	0.143048309	-0.13043653	0.110764729	-0.614598344
476	2020/10/12T0:30:41.2	26.293	35.6314	21	5.1	HP	GUR	22.3423	37.9363	1087	436.1343604	60	60	60	0.000359756	2.01E-05	-1277484.18	-1277493.382	-1277501.13	-1277510.332	1	-0.37316442	0.142379072	-0.97000719	-0.868885145	0.104558228	0.577000739	0.14860244	-0.121445062	0.10801017	0.056113195	-0.718689592	0.101010256	0.886723539	0.140668813	-0.178695094	0.099378435	0.06843868	0.762958612	0.111240824	0.489488909	0.143048309	-0.13043653	0.110764729	0.10460131
477	2020/10/12T0:44:26.5	26.3168	35.6003	27	4.4	HP	GUR	22.3423	37.9363	1087	440.2759479	60	60	60	9.91E-05	5.14E-06	-1276673.3	-1276682.502	-1276674.58	-1276683.782	1	-0.160887169	0.302244711	-1.743210484	-0.138118991	0.145103528	0.577000739	0.14860244	-0.121445062	0.10801017	-0.462375707	-0.023105317	0.140510509	0.886723539	0.140668813	-0.178695094	0.099378435	-0.467279956	0.567691467	0.149660425	0.489488909	0.143048309	-0.13043653	0.110764729	-0.473334839
478	2020/10/12T1:11:58.5	26.3113	35.6314	22	4.1	HP	GUR	22.3423	37.9363	1087	437.5070244	60	60	60	4.19E-05	2.04E-06	-1275019.2	-1275028.402	-1275021.03	-1275030.232	1	-0.40433304	0.022519207	-2.472317099	-0.036606783	0.192228846	0.577000739	0.14860244	-0.121445062	0.10801017	-0.807333786	0.029956555	0.186266417	0.886723539	0.140668813	-0.178695094	0.099378435	-0.800067332	0.226734311	0.196779682	0.489488909	0.143048309	-0.13043653	0.110764729	-0.861484298
480	2020/10/12T2:38:53.6	26.2921	35.6122	19	4.1	HP	GUR	22.3423	37.9363	1087	437.2605621	60	60	60	4.18E-05	1.77E-06	-1269804.68	-1269813.882	-1269814.19	-1269823.392	1	-0.407512407	0.019703714	-2.475256076	-0.088105118	0.179097305	0.577000739	0.14860244	-0.121445062	0.10801017	-0.759014818	-0.02074638	0.173537804	0.886723539	0.140668813	-0.178695094	0.099378435	-0.75217989	0.168972904	0.183411771	0.489488909	0.143048309	-0.13043653	0.110764729	-0.806661868
481	2020/10/12T4:11:27.9	26.2926	35.6319	8	5.2	HP	GUR	22.3423	37.9363	1087	435.6071483	60	60	60	0.000544648	3.87E-05	-1264243.89	-1264253.092	-1264251.01	-1264260.212	1	-0.130913586	0.350598198	-0.641010277	-0.610439738	0.103953817	0.577000739	0.14860244	-0.121445062	0.10801017	0.039918623	-0.500548741	0.100412146	0.886723539	0.140668813	-0.178695094	0.099378435	0.058516955	1.103181701	0.110680821	0.489488909	0.143048309	-0.13043653	0.110764729	0.093375134
484	2020/10/12T5:0:33.6	26.282	35.5966	18	3.9	HP	GUR	22.3423	37.9363	1087	437.5422739	60	60	60	5.62E-05	2.66E-06	-1261300.36	-1261309.562	-1261299.43	-1261308.632	1	0.320846456	0.720722806	-2.088533613	0.434264213	0.175177603	0.577000739	0.14860244	-0.121445062	0.10801017	-0.553025286	0.484726214	0.169740699	0.886723539	0.140668813	-0.178695094	0.099378435	-0.556633392	0.395730794	0.179449218	0.489488909	0.143048309	-0.13043653	0.110764729	-0.646697295
485	2020/10/12T8:53:19.0	26.2747	35.6277	6	3.9	HP	GUR	22.3423	37.9363	1087	434.5604896	60	60	60	9.75E-05	2.36E-06	-1247337.82	-1247347.022	-1247344.14	-1247353.342	1	0.842182932	1.246452643	-1.564295484	0.644603314	0.178875538	0.577000739	0.14860244	-0.121445062	0.10801017	-0.242027911	0.681503013	0.173326785	0.886723539	0.140668813	-0.178695094	0.099378435	-0.227680354	0.605344914	0.183182499	0.489488909	0.143048309	-0.13043653	0.110764729	-0.332073286
491	2020/10/14T22:22:49.9	26.3617	35.6195	12	4	HP	GUR	22.3423	37.9363	1087	441.5350094	60	60	60	7.61E-05	4.50E-06	-1025962.46	-1025971.662	-1025962.39	-1025971.592	1	0.449416713	0.856842317	-1.791607519	0.483845668	0.168438225	0.577000739	0.14860244	-0.121445062	0.10801017	-0.474036485	0.546429163	0.163203881	0.886723539	0.140668813	-0.178695094	0.099378435	-0.482216829	0.610530238	0.172686224	0.489488909	0.143048309	-0.13043653	0.110764729	-0.564570645
504	2020/10/24T2:6:45.5	26.2793	35.5957	18	3.8	HP	GUR	22.3423	37.9363	1087	437.4095283	60	60	60	5.16E-05	1.70E-06	-234929.32	-234938.5216	-234956.25	-234965.4516	1	0.449689845	0.836298921	-2.1349796	0.101932649	0.197341108	0.577000739	0.14860244	-0.121445062	0.10801017	-0.091850333	0.123600246	0.191220601	0.886723539	0.140668813	-0.178695094	0.099378435	-0.079931309	-0.110331504	0.20203096	0.489488909	0.143048309	-0.13043653	0.110764729	-0.187080984
82	2020/2/20T0:32:30.3	23.839	35.1997	7	3.5	HL	GVD	24.08738	34.83914	170	46.5332976	60	60	60	0.003294268	9.39E-05	-21581441.52	-21581450.72	-21581445.1	-21581454.3	1	-0.641799995	-0.67914605	-3.500932618	0.514694806	0.290562719	-0.229667318	0.143586189	-0.121445062	0.10801017	-0.789434273	0.280660664	0.281259769	-0.125869509	0.1356613	-0.178695094	0.099378435	-0.739843651	-0.201971439	0.303192752	-0.038845394	0.138379215	-0.13043653	0.110764729	-0.933059765
105	2020/3/21T18:58:34.2	25.8925	35.5376	10	3.7	HL	GVD	24.08738	34.83914	170	182.0340518	60	60	60	0.000305421	1.74E-05	-18923043.54	-18923052.74	-18923044.38	-18923053.58	1	-0.741518796	-0.499699646	-3.098544867	0.690953562	0.183445759	-0.229667318	0.143586189	-0.121445062	0.10801017	-1.06541183	0.695828381	0.177746643	-0.125869509	0.1356613	-0.178695094	0.099378435	-0.975564963	0.304212402	0.187826546	-0.038845394	0.138379215	-0.13043653	0.110764729	-1.036855855
121	2020/4/9T1:11:49.9	23.5162	34.986	9	3.6	HL	GVD	24.08738	34.83914	170	55.44447257	60	60	60	0.003587012	0.000141404	-17345479.63	-17345488.83	-17345479.7	-17345488.9	1	-0.485251634	-0.455815055	-3.128710245	-0.294200465	0.379136467	-0.229667318	0.143586189	-0.121445062	0.10801017	0.176009359	-0.321104084	0.366315952	-0.125869509	0.1356613	-0.178695094	0.099378435	0.085252092	-0.731411382	0.41167842	-0.038845394	0.138379215	-0.13043653	0.110764729	-0.031397449
127	2020/4/11T10:22:55.6	26.1795	35.2176	21	4.8	HL	GVD	24.08738	34.83914	170	196.6209282	60	60	60	0.001157971	7.34E-05	-17139587.93	-17139597.13	-17139592.63	-17139601.83	1	-1.574931638	-1.188037309	-2.142561374	-0.225334057	0.110173683	-0.229667318	0.143586189	-0.121445062	0.10801017	-0.982537053	-0.112820926	0.106491447	-0.125869509	0.1356613	-0.178695094	0.099378435	-0.855253319	1.008544521	0.116456224	-0.038845394	0.138379215	-0.13043653	0.110764729	-0.785204481
129	2020/4/13T11:22:49.1	24.1122	34.6664	25	3.6	HL	GVD	24.08738	34.83914	170	31.71620445	60	60	60	0.036945002	0.000917022	-16963233.24	-16963242.44	-16963232.53	-16963241.73	1	0.966407194	0.81420269	-1.78029899	0.279675166	0.311357864	-0.229667318	0.143586189	-0.121445062	0.10801017	1.053792556	0.200715308	0.301287413	-0.125869509	0.1356613	-0.178695094	0.099378435	0.833450445	-0.177237474	0.327366111	-0.038845394	0.138379215	-0.13043653	0.110764729	0.762839899
138	2020/4/19T10:34:29.7	25.0214	34.3707	15	3.8	HL	GVD	24.08738	34.83914	170	101.3421257	60	60	60	0.002004275	0.000110964	-16447705.21	-16447714.41	-16447705.26	-16447714.46	1	-0.401063688	-0.198713628	-2.602496797	-0.212806541	0.209393089	-0.229667318	0.143586189	-0.121445062	0.10801017	0.178803381	-0.176138741	0.202890066	-0.125869509	0.1356613	-0.178695094	0.099378435	0.197388176	-0.445255609	0.214513456	-0.038845394	0.138379215	-0.13043653	0.110764729	0.208660226
144	2020/4/25T10:48:35.6	24.0335	34.866	14	3.9	HL	GVD	24.08738	34.83914	170	15.29534072	60	60	60	0.344263807	0.007823756	-15928487.91	-15928497.11	-15928487.99	-15928497.19	1	1.509154168	1.122705799	-0.850423867	0.585431076	0.210570382	-0.229667318	0.143586189	-0.121445062	0.10801017	1.29078362	0.565576142	0.204014677	-0.125869509	0.1356613	-0.178695094	0.099378435	0.777092721	0.497727305	0.215766298	-0.038845394	0.138379215	-0.13043653	0.110764729	1.017750242
146	2020/4/26T13:23:40.6	24.7055	34.7177	14	3.8	HL	GVD	24.08738	34.83914	170	59.86173306	60	60	60	0.018325645	0.000245772	-15832801.26	-15832810.46	-15832801.26	-15832810.46	1	0.844160637	0.922560251	-1.425597146	0.317445465	0.271326167	-0.229667318	0.143586189	-0.121445062	0.10801017	0.8937757	0.293040834	0.262732248	-0.125869509	0.1356613	-0.178695094	0.099378435	0.849482481	0.13205351	0.281380072	-0.038845394	0.138379215	-0.13043653	0.110764729	0.808250759
148	2020/5/1T18:3:14.1	24.7018	35.0089	26	3.9	HL	GVD	24.08738	34.83914	170	64.74068918	60	60	60	0.005302652	0.000225464	-15383989.45	-15383998.65	-15383996.15	-15384005.35	1	-0.476623159	-0.363129247	-2.558353161	-0.095810152	0.244095738	-0.229667318	0.143586189	-0.121445062	0.10801017	-0.013752479	-0.111847903	0.236451066	-0.125869509	0.1356613	-0.178695094	0.099378435	-0.03131828	-0.183491325	0.251389777	-0.038845394	0.138379215	-0.13043653	0.110764729	-0.008960422
150	2020/5/2T12:51:9.2	25.6915	34.4366	9	6	HL	GVD	24.08738	34.83914	170	153.9800786	60	60	60	0.010141086	0.001259737	-15316292.67	-15316301.87	-15316292.57	-15316301.77	1	-1.828320634	-2.05918405	-1.638677469	-0.930147423	0.106111378	-0.229667318	0.143586189	-0.121445062	0.10801017	-0.531112683	-1.180843283	0.102497743	-0.125869509	0.1356613	-0.178695094	0.099378435	-0.658377704	1.292843971	0.112683034	-0.038845394	0.138379215	-0.13043653	0.110764729	-0.565620025
157	2020/5/2T16:44:31.3	25.6375	34.4577	5	4.8	HL	GVD	24.08738	34.83914	170	148.3644083	60	60	60	0.003544233	0.000348852	-15302293.13	-15302302.33	-15302293.27	-15302302.47	1	-1.161518451	-0.777011675	-1.724756152	-0.245896595	0.11412002	-0.229667318	0.143586189	-0.121445062	0.10801017	-0.548561328	-0.194919121	0.110326472	-0.125869509	0.1356613	-0.178695094	0.099378435	-0.36212949	0.940341723	0.12013804	-0.038845394	0.138379215	-0.13043653	0.110764729	-0.299196461
177	2020/5/10T8:40:14.1	25.6174	34.3094	2	3.9	HL	GVD	24.08738	34.83914	170	152.2083143	60	60	60	0.000640019	3.22E-05	-14640147.39	-14640156.59	-14640149.09	-14640158.29	1	-0.874728726	-0.609444352	-2.876555707	-0.337792414	0.244369097	-0.229667318	0.143586189	-0.121445062	0.10801017	-0.169875784	-0.275980568	0.236712369	-0.125869509	0.1356613	-0.178695094	0.099378435	-0.11350072	-0.404110354	0.251677819	-0.038845394	0.138379215	-0.13043653	0.110764729	-0.106543938
184	2020/5/16T2:30:28.1	25.719	34.3469	8	4	HL	GVD	24.08738	34.83914	170	159.5374803	60	60	60	0.000402733	2.84E-05	-14143932.6	-14143941.8	-14143940.46	-14143949.66	1	-1.440798588	-1.15989082	-3.269665602	-0.030194475	0.132544136	-0.229667318	0.143586189	-0.121445062	0.10801017	-1.043543585	-0.03559069	0.128296532	-0.125869509	0.1356613	-0.178695094	0.099378435	-0.904337067	-0.033928878	0.137582008	-0.038845394	0.138379215	-0.13043653	0.110764729	-0.86983531
190	2020/5/18T4:18:23.7	25.6998	34.4962	14	4.6	HL	GVD	24.08738	34.83914	170	153.2600671	60	60	60	0.001891927	0.000174595	-13964658.45	-13964667.65	-13964659.52	-13964668.72	1	-1.282097496	-0.922452492	-2.142718948	-0.515807616	0.110764242	-0.229667318	0.143586189	-0.121445062	0.10801017	-0.399229352	-0.461402119	0.107071669	-0.125869509	0.1356613	-0.178695094	0.099378435	-0.241087309	0.400549135	0.117004469	-0.038845394	0.138379215	-0.13043653	0.110764729	-0.177366669
193	2020/5/18T11:48:9.0	25.6073	34.3121	15	4.5	HL	GVD	24.08738	34.83914	170	151.9792986	60	60	60	0.001002625	6.31E-05	-13937675.39	-13937684.59	-13937675.48	-13937684.68	1	-1.721617326	-1.375831072	-2.735981917	-0.655706001	0.140087429	-0.229667318	0.143586189	-0.121445062	0.10801017	-0.698850797	-0.592341311	0.135626449	-0.125869509	0.1356613	-0.178695094	0.099378435	-0.563526697	0.119249391	0.14483218	-0.038845394	0.138379215	-0.13043653	0.110764729	-0.489329894
196	2020/5/18T23:22:37.2	25.5762	34.3066	7	5.2	HL	GVD	24.08738	34.83914	170	149.010577	60	60	60	0.004410462	0.000348592	-13896004.77	-13896013.97	-13896005.8	-13896015	1	-1.638927557	-1.355648098	-1.798313919	-0.826509415	0.104603435	-0.229667318	0.143586189	-0.121445062	0.10801017	-0.445357614	-0.81379422	0.101050847	-0.125869509	0.1356613	-0.178695094	0.099378435	-0.321890815	0.823476381	0.11129827	-0.038845394	0.138379215	-0.13043653	0.110764729	-0.255888886
202	2020/5/19T4:15:45.8	25.5798	34.4714	5	3.7	HL	GVD	24.08738	34.83914	170	142.8538324	60	60	60	0.009163197	0.000100295	-13878459.54	-13878468.74	-13878439.24	-13878448.44	1	2.069541325	2.303682849	-0.288156536	-0.16875589	0.288993538	-0.229667318	0.143586189	-0.121445062	0.10801017	2.605357743	-0.120040732	0.279762991	-0.125869509	0.1356613	-0.178695094	0.099378435	2.643686645	-0.483926962	0.301346208	-0.038845394	0.138379215	-0.13043653	0.110764729	2.56167184
236	2020/5/23T23:21:31.6	24.7183	34.6829	14	3.6	HL	GVD	24.08738	34.83914	170	61.94916382	60	60	60	0.003617868	0.000232904	-13464100.97	-13464110.17	-13464100.84	-13464110.04	1	-0.288874613	-0.227811199	-2.914460225	0.093083044	0.311357864	-0.229667318	0.143586189	-0.121445062	0.10801017	-0.014897129	0.045669466	0.301287413	-0.125869509	0.1356613	-0.178695094	0.099378435	-0.053517601	-0.369441541	0.327366111	-0.038845394	0.138379215	-0.13043653	0.110764729	-0.179117269
240	2020/5/25T1:28:42.6	25.5798	34.3396	22	3.5	HL	GVD	24.08738	34.83914	170	149.3590639	60	60	60	0.000415663	2.08E-05	-13370040.14	-13370049.34	-13370042.94	-13370052.14	1	-0.489290562	-0.27895974	-3.212682168	-0.04992465	0.313344141	-0.229667318	0.143586189	-0.121445062	0.10801017	-0.072305384	-0.053016917	0.303168409	-0.125869509	0.1356613	-0.178695094	0.099378435	-0.00597976	-0.62958959	0.329716347	-0.038845394	0.138379215	-0.13043653	0.110764729	-0.217191164
316	2020/6/19T7:43:22.0	25.5606	34.3295	8	4.6	HL	GVD	24.08738	34.83914	170	146.7371099	60	60	60	0.002302732	0.00016617	-11187563.14	-11187572.34	-11187563.1	-11187572.3	1	-1.187827555	-0.830831855	-2.049238272	-0.098974396	0.138576471	-0.229667318	0.143586189	-0.121445062	0.10801017	-0.721792631	-0.085283974	0.13413432	-0.125869509	0.1356613	-0.178695094	0.099378435	-0.525584818	0.783643284	0.143382198	-0.038845394	0.138379215	-0.13043653	0.110764729	-0.466980142
317	2020/6/19T20:34:11.9	25.5322	34.5557	30	4.4	HL	GVD	24.08738	34.83914	170	139.3651256	60	60	60	0.002265715	0.000189767	-11141313.21	-11141322.41	-11141313.3	-11141322.5	1	-0.891940885	-0.565759027	-2.065276298	-0.16009215	0.147186193	-0.229667318	0.143586189	-0.121445062	0.10801017	-0.364788207	-0.097269299	0.142537541	-0.125869509	0.1356613	-0.178695094	0.099378435	-0.248526664	0.488463149	0.151742973	-0.038845394	0.138379215	-0.13043653	0.110764729	-0.187838033
318	2020/6/19T21:17:15.2	25.5542	34.5483	15	4.5	HL	GVD	24.08738	34.83914	170	139.0473054	60	60	60	0.002124172	0.000137917	-11138729	-11138738.2	-11138729.94	-11138739.14	1	-1.176975059	-0.83759287	-2.193611376	-0.398291969	0.154560632	-0.229667318	0.143586189	-0.121445062	0.10801017	-0.411622562	-0.313895484	0.1497064	-0.125869509	0.1356613	-0.178695094	0.099378435	-0.303734323	0.405278012	0.158960249	-0.038845394	0.138379215	-0.13043653	0.110764729	-0.232987973
353	2020/7/7T21:11:23.4	25.351	34.6564	52	3.6	HL	GVD	24.08738	34.83914	170	128.5319028	60	60	60	0.00042365	2.21E-05	-9583883.68	-9583892.882	-9583883.63	-9583892.832	1	-1.026513133	-0.815953205	-3.570673422	-0.202920148	0.270842224	-0.229667318	0.143586189	-0.121445062	0.10801017	-0.456532457	-0.189779819	0.262270438	-0.125869509	0.1356613	-0.178695094	0.099378435	-0.406210322	-0.695638276	0.280807028	-0.038845394	0.138379215	-0.13043653	0.110764729	-0.509133732
414	2020/8/25T16:37:46.8	23.7794	35.1897	20	3.5	HL	GVD	24.08738	34.83914	170	52.05321061	60	60	60	0.004249646	0.000124835	-5366726.1	-5366735.302	-5366727.73	-5366736.932	1	-0.204962472	-0.207744421	-3.04440884	0.502119409	0.258331935	-0.229667318	0.143586189	-0.121445062	0.10801017	-0.340021353	0.338381593	0.250176429	-0.125869509	0.1356613	-0.178695094	0.099378435	-0.326162951	-0.206790109	0.266971325	-0.038845394	0.138379215	-0.13043653	0.110764729	-0.471717316
433	2020/9/14T1:52:56.5	24.8593	34.7543	15	3.5	HL	GVD	24.08738	34.83914	170	72.86175377	60	60	60	0.002450568	7.38E-05	-3691807.5	-3691816.702	-3691809.12	-3691818.322	1	-0.178261566	-0.087853018	-2.965019045	0.57915296	0.31333757	-0.229667318	0.143586189	-0.121445062	0.10801017	-0.390353998	0.487961224	0.30316609	-0.125869509	0.1356613	-0.178695094	0.099378435	-0.355851179	0.035981906	0.329707557	-0.038845394	0.138379215	-0.13043653	0.110764729	-0.635099537
436	2020/9/18T16:28:18.6	25.2933	34.9338	52	5.3	HL	GVD	24.08738	34.83914	170	122.4102373	60	60	60	0.014010905	0.001353083	-3293671.32	-3293680.522	-3293671.24	-3293680.442	1	-1.045400737	-0.862189106	-1.173798661	-0.273046508	0.11201441	-0.229667318	0.143586189	-0.121445062	0.10801017	-0.405293701	-0.229920928	0.108296396	-0.125869509	0.1356613	-0.178695094	0.099378435	-0.412305115	1.498907075	0.118139703	-0.038845394	0.138379215	-0.13043653	0.110764729	-0.306804322
