eventname	origintime	hyplon	hyplat	hypdepth (km)	mw	network	station	stlon	stlat	stelev	hypdist	duration_e	duration_n	duration_horiz	pga	pgv	tPGV_origin	tPGV_parriv	tPGA_origin	tPGA_parriv	polygon	ask14	sk13	z16	ask14_dE	ask14_dE_std	ask14_dS	ask14_dS_std	ask14_dPol	ask14_dPol_std	ask14_dP	sk13_dE	sk13_dE_std	sk13_dS	sk13_dS_std	sk13_dPol	sk13_dPol_std	sk13_dP	z16_dE	z16_dE_std	z16_dS	z16_dS_std	z16_dPol	z16_dPol_std	z16_dP
476	2020/10/12T0:30:41.2	26.293	35.6314	21	5.1	HC	CHAN	24.0428	35.5193	37	205.4228081	60	60	60	0.006095941	0.000489482	-1277511.972	-1277521.174	-1277515.732	-1277524.934	1	-0.403534824	-0.016695818	-0.821193122	-0.868885145	0.104558228	-0.234576525	0.182611711	-0.121445062	0.10801017	0.837320055	-0.718689592	0.101010256	-0.04165745	0.174132944	-0.178695094	0.099378435	0.837744779	0.762958612	0.111240824	-0.150153021	0.176716448	-0.13043653	0.110764729	0.893057308
477	2020/10/12T0:44:26.5	26.3168	35.6003	27	4.4	HC	CHAN	24.0428	35.5193	37	208.1204436	60	60	60	0.002108983	0.000139267	-1276690.942	-1276700.144	-1276691.032	-1276700.234	1	0.009957542	0.37041898	-1.370926749	-0.138118991	0.145103528	-0.234576525	0.182611711	-0.121445062	0.10801017	0.520046268	-0.023105317	0.140510509	-0.04165745	0.174132944	-0.178695094	0.099378435	0.529275302	0.567691467	0.149660425	-0.150153021	0.176716448	-0.13043653	0.110764729	0.538590826
481	2020/10/12T4:11:27.9	26.2926	35.6319	8	5.2	HC	CHAN	24.0428	35.5193	37	204.4673668	60	60	60	0.013356266	0.001251565	-1264265.322	-1264274.524	-1264265.442	-1264274.644	1	0.221801696	0.553272628	-0.129812749	-0.610439738	0.103953817	-0.234576525	0.182611711	-0.121445062	0.10801017	1.204211168	-0.500548741	0.100412146	-0.04165745	0.174132944	-0.178695094	0.099378435	1.189572374	1.103181701	0.110680821	-0.150153021	0.176716448	-0.13043653	0.110764729	1.244214592
150	2020/5/2T12:51:9.2	25.6915	34.4366	9	6	HT	CHOS	26.0506	38.3869	854	439.6430036	60	60	60	0.000336308	6.12E-05	-15316250.85	-15316260.05	-15316250.61	-15316259.81	1	-2.163925568	-2.326977998	-2.07867424	-0.930147423	0.106111378	-0.99268239	0.218558472	-0.121445062	0.10801017	-0.103702546	-1.180843283	0.102497743	-0.870929197	0.20913891	-0.178695094	0.099378435	-0.181111963	1.292843971	0.112683034	-0.90915171	0.211816389	-0.13043653	0.110764729	-0.13531048
190	2020/5/18T4:18:23.7	25.6998	34.4962	14	4.6	HT	CHOS	26.0506	38.3869	854	433.1383546	60	60	60	4.72E-05	4.06E-06	-13964614.51	-13964623.71	-13964614.72	-13964623.92	1	-1.667381114	-1.518922817	-2.90324542	-0.515807616	0.110764242	-0.99268239	0.218558472	-0.121445062	0.10801017	-0.021497898	-0.461402119	0.107071669	-0.870929197	0.20913891	-0.178695094	0.099378435	-0.092497946	0.400549135	0.117004469	-0.90915171	0.211816389	-0.13043653	0.110764729	-0.067586825
196	2020/5/18T23:22:37.2	25.5762	34.3066	7	5.2	HT	CHOS	26.0506	38.3869	854	454.8367638	60	60	60	9.56E-05	9.98E-06	-13895963.36	-13895972.56	-13895963.12	-13895972.32	1	-1.942383806	-1.839328528	-2.439480281	-0.826509415	0.104603435	-0.99268239	0.218558472	-0.121445062	0.10801017	0.014201208	-0.81379422	0.101050847	-0.870929197	0.20913891	-0.178695094	0.099378435	-0.060511556	0.823476381	0.11129827	-0.90915171	0.211816389	-0.13043653	0.110764729	-0.026748932
316	2020/6/19T7:43:22.0	25.5606	34.3295	8	4.6	HT	CHOS	26.0506	38.3869	854	452.4598105	60	60	60	4.21E-05	4.08E-06	-11187516.3	-11187525.5	-11187519.37	-11187528.57	1	-1.587507641	-1.467801296	-2.84238302	-0.098974396	0.138576471	-0.99268239	0.218558472	-0.121445062	0.10801017	-0.358457645	-0.085283974	0.13413432	-0.870929197	0.20913891	-0.178695094	0.099378435	-0.41749457	0.783643284	0.143382198	-0.90915171	0.211816389	-0.13043653	0.110764729	-0.389818574
318	2020/6/19T21:17:15.2	25.5542	34.5483	15	4.5	HT	CHOS	26.0506	38.3869	854	428.5693822	60	60	60	3.65E-05	2.55E-06	-11138690.46	-11138699.66	-11138698.3	-11138707.5	1	-1.757381722	-1.615702144	-3.142159447	-0.398291969	0.154560632	-0.99268239	0.218558472	-0.121445062	0.10801017	-0.229014153	-0.313895484	0.1497064	-0.870929197	0.20913891	-0.178695094	0.099378435	-0.336783908	0.405278012	0.158960249	-0.90915171	0.211816389	-0.13043653	0.110764729	-0.311229728
436	2020/9/18T16:28:18.6	25.2933	34.9338	52	5.3	HT	CHOS	26.0506	38.3869	854	392.6992766	60	60	60	0.000378489	3.21E-05	-3293646.34	-3293655.542	-3293641.63	-3293650.832	1	-1.356584206	-1.20989246	-1.722017725	-0.273046508	0.11201441	-0.99268239	0.218558472	-0.121445062	0.10801017	0.046537901	-0.229920928	0.108296396	-0.870929197	0.20913891	-0.178695094	0.099378435	-0.01494878	1.498907075	0.118139703	-0.90915171	0.211816389	-0.13043653	0.110764729	0.01528293
476	2020/10/12T0:30:41.2	26.293	35.6314	21	5.1	HT	CHOS	26.0506	38.3869	854	307.3371758	60	60	60	0.000287618	1.51E-05	-1277508.83	-1277518.032	-1277514.25	-1277523.452	1	-2.222200277	-1.902139555	-2.686725264	-0.868885145	0.104558228	-0.99268239	0.218558472	-0.121445062	0.10801017	-0.223239533	-0.718689592	0.101010256	-0.870929197	0.20913891	-0.178695094	0.099378435	-0.21842721	0.762958612	0.111240824	-0.90915171	0.211816389	-0.13043653	0.110764729	-0.213476145
481	2020/10/12T4:11:27.9	26.2926	35.6319	8	5.2	HT	CHOS	26.0506	38.3869	854	306.6292104	60	60	60	0.000339081	2.03E-05	-1264259.86	-1264269.062	-1264259.82	-1264269.022	1	-2.223062787	-1.946749318	-2.610376084	-0.610439738	0.103953817	-0.99268239	0.218558472	-0.121445062	0.10801017	-0.482547449	-0.500548741	0.100412146	-0.870929197	0.20913891	-0.178695094	0.099378435	-0.481177825	1.103181701	0.110680821	-0.90915171	0.211816389	-0.13043653	0.110764729	-0.477350054
317	2020/6/19T20:34:11.9	25.5322	34.5557	30	4.4	HT	CMBO	25.4056	36.4709	108	214.9209084	60	60	60	0.001725625	8.91E-05	-11141303.31	-11141312.51	-11141302.86	-11141312.06	1	-0.1264156	0.256719181	-1.484155635	-0.16009215	0.147186193	0.522225639	0.199331347	-0.121445062	0.10801017	-0.35115588	-0.097269299	0.142537541	0.733902251	0.190394101	-0.178695094	0.099378435	-0.285820216	0.488463149	0.151742973	0.613446659	0.193252501	-0.13043653	0.110764729	-0.259009422
318	2020/6/19T21:17:15.2	25.5542	34.5483	15	4.5	HT	CMBO	25.4056	36.4709	108	214.2711509	60	60	60	0.001269043	8.12E-05	-11138726.62	-11138735.82	-11138718.81	-11138728.01	1	-0.657634606	-0.260772887	-1.858501885	-0.398291969	0.154560632	0.522225639	0.199331347	-0.121445062	0.10801017	-0.644175067	-0.313895484	0.1497064	0.733902251	0.190394101	-0.178695094	0.099378435	-0.5866861	0.405278012	0.158960249	0.613446659	0.193252501	-0.13043653	0.110764729	-0.550170535
436	2020/9/18T16:28:18.6	25.2933	34.9338	52	5.3	HT	CMBO	25.4056	36.4709	108	178.6188098	60	60	60	0.016192075	0.001408127	-3293666.34	-3293675.542	-3293663.86	-3293673.062	1	-0.10380268	0.191501583	-0.371980594	-0.273046508	0.11201441	0.522225639	0.199331347	-0.121445062	0.10801017	-0.215588602	-0.229920928	0.108296396	0.733902251	0.190394101	-0.178695094	0.099378435	-0.218386186	1.498907075	0.118139703	0.613446659	0.193252501	-0.13043653	0.110764729	-0.157278307
446	2020/9/24T18:52:14.0	25.9195	35.2927	16	4.1	HT	CMBO	25.4056	36.4709	108	139.652324	60	60	60	0.008231955	0.000387737	-2766634.76	-2766643.962	-2766636.41	-2766645.612	1	0.992231342	1.335046362	-0.846424345	0.541387096	0.169266907	0.522225639	0.199331347	-0.121445062	0.10801017	0.066011816	0.576252118	0.163985278	0.733902251	0.190394101	-0.178695094	0.099378435	0.118985547	0.782007589	0.173513417	0.613446659	0.193252501	-0.13043653	0.110764729	0.085177428
447	2020/9/24T21:22:54.1	25.9177	35.3036	14	3.8	HT	CMBO	25.4056	36.4709	108	138.2471361	60	60	60	0.005115169	0.000189409	-2757596.43	-2757605.632	-2757596.48	-2757605.682	1	1.139592679	1.441185983	-1.216793613	0.543580971	0.203042987	0.522225639	0.199331347	-0.121445062	0.10801017	0.211179278	0.513278234	0.196742177	0.733902251	0.190394101	-0.178695094	0.099378435	0.288099053	0.311534022	0.207922141	0.613446659	0.193252501	-0.13043653	0.110764729	0.185281727
476	2020/10/12T0:30:41.2	26.293	35.6314	21	5.1	HT	CMBO	25.4056	36.4709	108	124.5625325	60	60	60	0.048481797	0.003114651	-1277531.99	-1277541.192	-1277531.93	-1277541.132	1	0.441018315	0.822876582	0.036168914	-0.868885145	0.104558228	0.522225639	0.199331347	-0.121445062	0.10801017	0.92507103	-0.718689592	0.101010256	0.733902251	0.190394101	-0.178695094	0.099378435	0.901757478	0.762958612	0.111240824	0.613446659	0.193252501	-0.13043653	0.110764729	0.986819665
477	2020/10/12T0:44:26.5	26.3168	35.6003	27	4.4	HT	CMBO	25.4056	36.4709	108	129.6535178	60	60	60	0.01416798	0.00102105	-1276708.15	-1276717.352	-1276707.75	-1276716.952	1	0.722787647	1.098476106	-0.629984731	-0.138118991	0.145103528	0.522225639	0.199331347	-0.121445062	0.10801017	0.476074209	-0.023105317	0.140510509	0.733902251	0.190394101	-0.178695094	0.099378435	0.481772726	0.567691467	0.149660425	0.613446659	0.193252501	-0.13043653	0.110764729	0.515933164
478	2020/10/12T1:11:58.5	26.3113	35.6314	22	4.1	HT	CMBO	25.4056	36.4709	108	125.7991997	60	60	60	0.003408511	0.000253263	-1275056.04	-1275065.242	-1275053.78	-1275062.982	1	-0.122036771	0.209991402	-1.965570372	-0.036606783	0.192228846	0.522225639	0.199331347	-0.121445062	0.10801017	-0.470262417	0.029956555	0.186266417	0.733902251	0.190394101	-0.178695094	0.099378435	-0.459773849	0.226734311	0.196779682	0.613446659	0.193252501	-0.13043653	0.110764729	-0.478695321
480	2020/10/12T2:38:53.6	26.2921	35.6122	19	4.1	HT	CMBO	25.4056	36.4709	108	125.7989658	60	60	60	0.005785603	0.000354777	-1269841.69	-1269850.892	-1269839.78	-1269848.982	1	0.407056148	0.739084099	-1.436477559	-0.088105118	0.179097305	0.522225639	0.199331347	-0.121445062	0.10801017	0.110328836	-0.02074638	0.173537804	0.733902251	0.190394101	-0.178695094	0.099378435	0.120021782	0.168972904	0.183411771	0.613446659	0.193252501	-0.13043653	0.110764729	0.108158899
481	2020/10/12T4:11:27.9	26.2926	35.6319	8	5.2	HT	CMBO	25.4056	36.4709	108	122.9629296	60	60	60	0.092400511	0.005223005	-1264285.94	-1264295.142	-1264285.88	-1264295.082	1	0.92609466	1.236324134	0.572473838	-0.610439738	0.103953817	0.522225639	0.199331347	-0.121445062	0.10801017	1.151701968	-0.500548741	0.100412146	0.733902251	0.190394101	-0.178695094	0.099378435	1.097064178	1.103181701	0.110680821	0.613446659	0.193252501	-0.13043653	0.110764729	1.1829015
484	2020/10/12T5:0:33.6	26.282	35.5966	18	3.9	HT	CMBO	25.4056	36.4709	108	126.4026341	60	60	60	0.008819186	0.000457987	-1261340.09	-1261349.292	-1261340.03	-1261349.232	1	1.269786672	1.575516065	-0.915284263	0.434264213	0.175177603	0.522225639	0.199331347	-0.121445062	0.10801017	0.45069003	0.484726214	0.169740699	0.733902251	0.190394101	-0.178695094	0.099378435	0.450981155	0.395730794	0.179449218	0.613446659	0.193252501	-0.13043653	0.110764729	0.402594305
485	2020/10/12T8:53:19.0	26.2747	35.6277	6	3.9	HT	CMBO	25.4056	36.4709	108	122.1620152	60	60	60	0.008325186	0.000480741	-1247374.53	-1247383.732	-1247375.09	-1247384.292	1	1.138236	1.439746197	-1.048885594	0.644603314	0.178875538	0.522225639	0.199331347	-0.121445062	0.10801017	0.108800256	0.681503013	0.173326785	0.733902251	0.190394101	-0.178695094	0.099378435	0.118434487	0.605344914	0.183182499	0.613446659	0.193252501	-0.13043653	0.110764729	0.059378854
491	2020/10/14T22:22:49.9	26.3617	35.6195	12	4	HT	CMBO	25.4056	36.4709	108	128.4285989	60	60	60	0.007896272	0.000475537	-1026003.38	-1026012.582	-1026002.78	-1026011.982	1	0.978656409	1.299681696	-1.033053781	0.483845668	0.168438225	0.522225639	0.199331347	-0.121445062	0.10801017	0.109978311	0.546429163	0.163203881	0.733902251	0.190394101	-0.178695094	0.099378435	0.113443837	0.610530238	0.172686224	0.613446659	0.193252501	-0.13043653	0.110764729	0.070025343
504	2020/10/24T2:6:45.5	26.2793	35.5957	18	3.8	HT	CMBO	25.4056	36.4709	108	126.3277542	60	60	60	0.004055753	0.000230099	-234966.68	-234975.8816	-234966.84	-234976.0416	1	0.707092361	0.999297039	-1.653635464	0.101932649	0.197341108	0.522225639	0.199331347	-0.121445062	0.10801017	0.220327283	0.123600246	0.191220601	0.733902251	0.190394101	-0.178695094	0.099378435	0.235888096	-0.110331504	0.20203096	0.613446659	0.193252501	-0.13043653	0.110764729	0.170305403
127	2020/4/11T10:22:55.6	26.1795	35.2176	21	4.8	HL	DION	23.93306	38.07794	460	376.2189284	60	60	60	0.000131786	9.21E-06	-17139559.67	-17139568.87	-17139568.43	-17139577.63	1	-1.623064337	-1.406273938	-2.313739889	-0.225334057	0.110173683	-0.958030765	0.201329313	-0.121445062	0.10801017	-0.302306305	-0.112820926	0.106491447	-0.913477754	0.192409801	-0.178695094	0.099378435	-0.285881703	1.008544521	0.116456224	-0.721066622	0.194978177	-0.13043653	0.110764729	-0.274161767
144	2020/4/25T10:48:35.6	24.0335	34.866	14	3.9	HL	DION	23.93306	38.07794	460	356.8287966	60	60	60	8.27E-05	4.14E-06	-15928444.4	-15928453.6	-15928444.29	-15928453.49	1	-0.357515482	-0.236885774	-2.468460225	0.585431076	0.210570382	-0.958030765	0.201329313	-0.121445062	0.10801017	0.152477417	0.565576142	0.204014677	-0.913477754	0.192409801	-0.178695094	0.099378435	0.205109393	0.497727305	0.215766298	-0.721066622	0.194978177	-0.13043653	0.110764729	0.081935113
150	2020/5/2T12:51:9.2	25.6915	34.4366	9	6	HL	DION	23.93306	38.07794	460	433.9387455	60	60	60	0.000446333	0.00010511	-15316267	-15316276.2	-15316270.72	-15316279.92	1	-1.89699903	-2.093196735	-1.614655237	-0.930147423	0.106111378	-0.958030765	0.201329313	-0.121445062	0.10801017	0.128572368	-1.180843283	0.102497743	-0.913477754	0.192409801	-0.178695094	0.099378435	0.095217856	1.292843971	0.112683034	-0.721066622	0.194978177	-0.13043653	0.110764729	0.140623436
153	2020/5/2T13:33:52.6	25.4242	34.3707	5	4.7	HL	DION	23.93306	38.07794	460	432.6773752	60	60	60	8.51E-05	9.12E-06	-15313688.73	-15313697.93	-15313705.3	-15313714.5	1	-1.260643212	-1.136042623	-2.150860787	-0.494701994	0.146451416	-0.958030765	0.201329313	-0.121445062	0.10801017	0.329482757	-0.434426957	0.141806343	-0.913477754	0.192409801	-0.178695094	0.099378435	0.305955643	0.550454075	0.151027598	-0.721066622	0.194978177	-0.13043653	0.110764729	0.346807781
157	2020/5/2T16:44:31.3	25.6375	34.4577	5	4.8	HL	DION	23.93306	38.07794	460	429.9327623	60	60	60	8.60E-05	1.01E-05	-15302262.65	-15302271.85	-15302274.15	-15302283.35	1	-1.493921905	-1.351853187	-2.234435044	-0.245896595	0.11412002	-0.958030765	0.201329313	-0.121445062	0.10801017	-0.152601335	-0.194919121	0.110326472	-0.913477754	0.192409801	-0.178695094	0.099378435	-0.149362757	0.940341723	0.12013804	-0.721066622	0.194978177	-0.13043653	0.110764729	-0.126654124
184	2020/5/16T2:30:28.1	25.719	34.3469	8	4	HL	DION	23.93306	38.07794	460	444.1168681	60	60	60	4.89E-05	1.72E-06	-14143906.5	-14143915.7	-14143917.11	-14143926.31	1	-0.191974675	-0.178494118	-2.210846921	-0.030194475	0.132544136	-0.958030765	0.201329313	-0.121445062	0.10801017	0.933643775	-0.03559069	0.128296532	-0.913477754	0.192409801	-0.178695094	0.099378435	0.86466788	-0.033928878	0.137582008	-0.721066622	0.194978177	-0.13043653	0.110764729	0.8712046
190	2020/5/18T4:18:23.7	25.6998	34.4962	14	4.6	HL	DION	23.93306	38.07794	460	428.1833283	60	60	60	6.79E-05	6.94E-06	-13964620.54	-13964629.74	-13964616.69	-13964625.89	1	-1.317149314	-1.199440951	-2.353206527	-0.515807616	0.110764242	-0.958030765	0.201329313	-0.121445062	0.10801017	0.294082277	-0.461402119	0.107071669	-0.913477754	0.192409801	-0.178695094	0.099378435	0.269532477	0.400549135	0.117004469	-0.721066622	0.194978177	-0.13043653	0.110764729	0.294366981
196	2020/5/18T23:22:37.2	25.5762	34.3066	7	5.2	HL	DION	23.93306	38.07794	460	443.8475393	60	60	60	0.000130801	1.59E-05	-13895962	-13895971.2	-13895985.6	-13895994.8	1	-1.699941386	-1.619709022	-1.992425856	-0.826509415	0.104603435	-0.958030765	0.201329313	-0.121445062	0.10801017	0.221992004	-0.81379422	0.101050847	-0.913477754	0.192409801	-0.178695094	0.099378435	0.201656506	0.823476381	0.11129827	-0.721066622	0.194978177	-0.13043653	0.110764729	0.232220406
317	2020/6/19T20:34:11.9	25.5322	34.5557	30	4.4	HL	DION	23.93306	38.07794	460	417.4840094	60	60	60	6.33E-05	3.02E-06	-11141274.66	-11141283.86	-11141281.52	-11141290.72	1	-1.065840986	-0.959611599	-2.401491925	-0.16009215	0.147186193	-0.958030765	0.201329313	-0.121445062	0.10801017	0.189675139	-0.097269299	0.142537541	-0.913477754	0.192409801	-0.178695094	0.099378435	0.145229009	0.488463149	0.151742973	-0.721066622	0.194978177	-0.13043653	0.110764729	0.158167569
318	2020/6/19T21:17:15.2	25.5542	34.5483	15	4.5	HL	DION	23.93306	38.07794	460	418.1138857	60	60	60	6.64E-05	2.69E-06	-11138707.76	-11138716.96	-11138704.27	-11138713.47	1	-1.226166899	-1.107381819	-2.405924772	-0.398291969	0.154560632	-0.958030765	0.201329313	-0.121445062	0.10801017	0.267549045	-0.313895484	0.1497064	-0.913477754	0.192409801	-0.178695094	0.099378435	0.214084973	0.405278012	0.158960249	-0.721066622	0.194978177	-0.13043653	0.110764729	0.236919859
436	2020/9/18T16:28:18.6	25.2933	34.9338	52	5.3	HL	DION	23.93306	38.07794	460	373.2591751	60	60	60	0.000503134	4.12E-05	-3293633.75	-3293642.952	-3293661.15	-3293670.352	1	-1.234250426	-1.103745048	-1.391346807	-0.273046508	0.11201441	-0.958030765	0.201329313	-0.121445062	0.10801017	0.134220057	-0.229920928	0.108296396	-0.913477754	0.192409801	-0.178695094	0.099378435	0.133747188	1.498907075	0.118139703	-0.721066622	0.194978177	-0.13043653	0.110764729	0.157868761
476	2020/10/12T0:30:41.2	26.293	35.6314	21	5.1	HL	DION	23.93306	38.07794	460	344.1641343	60	60	60	0.000149793	1.43E-05	-1277494.78	-1277503.982	-1277503.92	-1277513.122	1	-2.430727124	-2.187442821	-2.725942886	-0.868885145	0.104558228	-0.958030765	0.201329313	-0.121445062	0.10801017	-0.466418004	-0.718689592	0.101010256	-0.913477754	0.192409801	-0.178695094	0.099378435	-0.46118192	0.762958612	0.111240824	-0.721066622	0.194978177	-0.13043653	0.110764729	-0.440778855
481	2020/10/12T4:11:27.9	26.2926	35.6319	8	5.2	HL	DION	23.93306	38.07794	460	343.5325063	60	60	60	0.000204969	2.07E-05	-1264252.34	-1264261.542	-1264251.3	-1264260.502	1	-2.284585896	-2.081893141	-2.499503182	-0.610439738	0.103953817	-0.958030765	0.201329313	-0.121445062	0.10801017	-0.578722183	-0.500548741	0.100412146	-0.913477754	0.192409801	-0.178695094	0.099378435	-0.573773092	1.103181701	0.110680821	-0.721066622	0.194978177	-0.13043653	0.110764729	-0.55456224
150	2020/5/2T12:51:9.2	25.6915	34.4366	9	6	HT	DMLN	20.3734	38.2385	370	636.9844239	60	60	60	0.00098511	7.74E-05	-15316218.65	-15316227.85	-15316241.34	-15316250.54	1	0.662240971	0.314132532	0.673103261	-0.930147423	0.106111378	2.02968046	0.243918186	-0.121445062	0.10801017	-0.299898856	-1.180843283	0.102497743	1.800783925	0.23362974	-0.178695094	0.099378435	-0.211714555	1.292843971	0.112683034	1.900361411	0.236528303	-0.13043653	0.110764729	-0.1930461
190	2020/5/18T4:18:23.7	25.6998	34.4962	14	4.6	HT	DMLN	20.3734	38.2385	370	633.1481576	60	60	60	0.000692797	6.16E-06	-13964582.8	-13964592	-13964606.01	-13964615.21	1	2.902109253	2.760764699	1.48991081	-0.515807616	0.110764242	2.02968046	0.243918186	-0.121445062	0.10801017	1.525629619	-0.461402119	0.107071669	1.800783925	0.23362974	-0.178695094	0.099378435	1.515476448	0.400549135	0.117004469	1.900361411	0.236528303	-0.13043653	0.110764729	1.516056284
193	2020/5/18T11:48:9.0	25.6073	34.3121	15	4.5	HT	DMLN	20.3734	38.2385	370	641.0365926	60	60	60	7.67E-05	3.35E-06	-13937624.71	-13937633.91	-13937628.56	-13937637.76	1	0.988651483	0.819776902	-0.58596751	-0.655706001	0.140087429	2.02968046	0.243918186	-0.121445062	0.10801017	-0.247929766	-0.592341311	0.135626449	1.800783925	0.23362974	-0.178695094	0.099378435	-0.294572157	0.119249391	0.14483218	1.900361411	0.236528303	-0.13043653	0.110764729	-0.278522292
196	2020/5/18T23:22:37.2	25.5762	34.3066	7	5.2	HT	DMLN	20.3734	38.2385	370	639.2779974	60	60	60	0.000282043	1.94E-05	-13895951.96	-13895961.16	-13895959.29	-13895968.49	1	0.842511744	0.695920749	0.201647884	-0.826509415	0.104603435	2.02968046	0.243918186	-0.121445062	0.10801017	-0.223266091	-0.81379422	0.101050847	1.800783925	0.23362974	-0.178695094	0.099378435	-0.196975401	0.823476381	0.11129827	1.900361411	0.236528303	-0.13043653	0.110764729	-0.195133888
