eventname	origintime	hyplon	hyplat	hypdepth (km)	mw	network	station	stlon	stlat	stelev	hypdist	duration_e	duration_n	duration_horiz	pga	pgv	tPGV_origin	tPGV_parriv	tPGA_origin	tPGA_parriv	polygon	ask14	sk13	z16	ask14_dE	ask14_dE_std	ask14_dS	ask14_dS_std	ask14_dPol	ask14_dPol_std	ask14_dP	sk13_dE	sk13_dE_std	sk13_dS	sk13_dS_std	sk13_dPol	sk13_dPol_std	sk13_dP	z16_dE	z16_dE_std	z16_dS	z16_dS_std	z16_dPol	z16_dPol_std	z16_dP
127	2020/4/11T10:22:55.6	26.1795	35.2176	21	4.8	HT	AGG	22.336	39.0211	625	543.3152511	60	60	60	5.48E-05	6.06E-06	-17139538.75	-17139547.95	-17139560.25	-17139569.45	1	-0.868341414	-0.86639947	-1.921047874	-0.225334057	0.110173683	-0.224912951	0.206388664	-0.121445062	0.10801017	-0.280701196	-0.112820926	0.106491447	-0.375815447	0.197332842	-0.178695094	0.099378435	-0.283669541	1.008544521	0.116456224	-0.316543242	0.19991724	-0.13043653	0.110764729	-0.285993133
150	2020/5/2T12:51:9.2	25.6915	34.4366	9	6	HT	AGG	22.336	39.0211	625	590.4473318	60	60	60	0.00033461	7.20E-05	-15316225.74	-15316234.94	-15316225.33	-15316234.53	1	-0.789483743	-1.1153646	-0.784632656	-0.930147423	0.106111378	-0.224912951	0.206388664	-0.121445062	0.10801017	0.50296984	-1.180843283	0.102497743	-0.375815447	0.197332842	-0.178695094	0.099378435	0.535387685	1.292843971	0.112683034	-0.316543242	0.19991724	-0.13043653	0.110764729	0.566122636
157	2020/5/2T16:44:31.3	25.6375	34.4577	5	4.8	HT	AGG	22.336	39.0211	625	585.9219477	60	60	60	3.92E-05	5.61E-06	-15302239.21	-15302248.41	-15302251.63	-15302260.83	1	-0.80141308	-0.87176784	-1.901328448	-0.245896595	0.11412002	-0.224912951	0.206388664	-0.121445062	0.10801017	-0.193210324	-0.194919121	0.110326472	-0.375815447	0.197332842	-0.178695094	0.099378435	-0.206939717	0.940341723	0.12013804	-0.316543242	0.19991724	-0.13043653	0.110764729	-0.198070909
184	2020/5/16T2:30:28.1	25.719	34.3469	8	4	HT	AGG	22.336	39.0211	625	600.3422284	60	60	60	2.60E-05	1.09E-06	-14143881.73	-14143890.93	-14143881.63	-14143890.83	1	0.647568317	0.444531386	-1.732823087	-0.030194475	0.132544136	-0.224912951	0.206388664	-0.121445062	0.10801017	1.040068953	-0.03559069	0.128296532	-0.375815447	0.197332842	-0.178695094	0.099378435	0.950031078	-0.033928878	0.137582008	-0.316543242	0.19991724	-0.13043653	0.110764729	0.944705054
190	2020/5/18T4:18:23.7	25.6998	34.4962	14	4.6	HT	AGG	22.336	39.0211	625	585.1867362	60	60	60	3.79E-05	3.57E-06	-13964600.21	-13964609.41	-13964622.88	-13964632.08	1	-0.40998442	-0.505988696	-1.806197143	-0.515807616	0.110764242	-0.224912951	0.206388664	-0.121445062	0.10801017	0.468129357	-0.461402119	0.107071669	-0.375815447	0.197332842	-0.178695094	0.099378435	0.425322425	0.400549135	0.117004469	-0.316543242	0.19991724	-0.13043653	0.110764729	0.436852984
196	2020/5/18T23:22:37.2	25.5762	34.3066	7	5.2	HT	AGG	22.336	39.0211	625	597.9556869	60	60	60	6.24E-05	1.12E-05	-13895943.75	-13895952.95	-13895948.63	-13895957.83	1	-1.006251054	-1.122364296	-1.64203334	-0.826509415	0.104603435	-0.224912951	0.206388664	-0.121445062	0.10801017	0.182564521	-0.81379422	0.101050847	-0.375815447	0.197332842	-0.178695094	0.099378435	0.161338926	0.823476381	0.11129827	-0.316543242	0.19991724	-0.13043653	0.110764729	0.178089541
316	2020/6/19T7:43:22.0	25.5606	34.3295	8	4.6	HT	AGG	22.336	39.0211	625	595.052572	60	60	60	3.63E-05	3.08E-06	-11187506.72	-11187515.92	-11187499	-11187508.2	1	-0.360377366	-0.473449985	-1.767709981	-0.098974396	0.138576471	-0.224912951	0.206388664	-0.121445062	0.10801017	0.100903191	-0.085283974	0.13413432	-0.375815447	0.197332842	-0.178695094	0.099378435	0.081742991	0.783643284	0.143382198	-0.316543242	0.19991724	-0.13043653	0.110764729	0.092245997
317	2020/6/19T20:34:11.9	25.5322	34.5557	30	4.4	HT	AGG	22.336	39.0211	625	572.5121493	60	60	60	2.56E-05	1.85E-06	-11141254.83	-11141264.03	-11141250.93	-11141260.13	1	-0.489616639	-0.590791684	-2.181390298	-0.16009215	0.147186193	-0.224912951	0.206388664	-0.121445062	0.10801017	0.032781672	-0.097269299	0.142537541	-0.375815447	0.197332842	-0.178695094	0.099378435	-0.023613383	0.488463149	0.151742973	-0.316543242	0.19991724	-0.13043653	0.110764729	-0.026254185
337	2020/6/28T11:18:35.0	26.6757	35.5289	8	4.4	HT	AGG	22.336	39.0211	625	546.1462254	60	60	60	0.000113992	2.06E-06	-10397007.63	-10397016.83	-10397021.29	-10397030.49	1	0.752676202	0.696058063	-0.910019237	-0.007932511	0.176900345	-0.224912951	0.206388664	-0.121445062	0.10801017	1.122914874	0.062978717	0.171382307	-0.375815447	0.197332842	-0.178695094	0.099378435	1.102988348	0.645813932	0.181209306	-0.316543242	0.19991724	-0.13043653	0.110764729	1.087766094
476	2020/10/12T0:30:41.2	26.293	35.6314	21	5.1	HT	AGG	22.336	39.0211	625	514.6606041	60	60	60	7.01E-05	9.24E-06	-1277489.85	-1277499.052	-1277489.96	-1277499.162	1	-1.500605262	-1.454480782	-2.143613427	-0.868885145	0.104558228	-0.224912951	0.206388664	-0.121445062	0.10801017	-0.269413957	-0.718689592	0.101010256	-0.375815447	0.197332842	-0.178695094	0.099378435	-0.265882188	0.762958612	0.111240824	-0.316543242	0.19991724	-0.13043653	0.110764729	-0.262972776
481	2020/10/12T4:11:27.9	26.2926	35.6319	8	5.2	HT	AGG	22.336	39.0211	625	514.2129185	60	60	60	0.000105483	1.02E-05	-1264240.58	-1264249.782	-1264240.73	-1264249.932	1	-1.267518826	-1.250905424	-1.819302765	-0.610439738	0.103953817	-0.224912951	0.206388664	-0.121445062	0.10801017	-0.294772927	-0.500548741	0.100412146	-0.375815447	0.197332842	-0.178695094	0.099378435	-0.280447681	1.103181701	0.110680821	-0.316543242	0.19991724	-0.13043653	0.110764729	-0.278885203
127	2020/4/11T10:22:55.6	26.1795	35.2176	21	4.8	HT	ALN	26.046	40.885	110	629.5311206	60	60	60	1.65E-05	9.92E-07	-17139512.12	-17139521.32	-17139537.09	-17139546.29	1	-1.345982801	-1.409882379	-2.412803217	-0.225334057	0.110173683	-1.160323788	0.266403882	-0.121445062	0.10801017	0.177068253	-0.112820926	0.106491447	-1.33916597	0.255257095	-0.178695094	0.099378435	0.136198073	1.008544521	0.116456224	-1.229203137	0.258292723	-0.13043653	0.110764729	0.134911419
150	2020/5/2T12:51:9.2	25.6915	34.4366	9	6	HT	ALN	26.046	40.885	110	716.4494411	60	60	60	3.73E-05	1.23E-05	-15316208.59	-15316217.79	-15316208.01	-15316217.21	1	-1.966145199	-2.382634519	-1.973251349	-0.930147423	0.106111378	-1.160323788	0.266403882	-0.121445062	0.10801017	0.261719221	-1.180843283	0.102497743	-1.33916597	0.255257095	-0.178695094	0.099378435	0.231468289	1.292843971	0.112683034	-1.229203137	0.258292723	-0.13043653	0.110764729	0.290163838
157	2020/5/2T16:44:31.3	25.6375	34.4577	5	4.8	HT	ALN	26.046	40.885	110	714.2950774	60	60	60	1.11E-05	1.50E-06	-15302210.11	-15302219.31	-15302234.48	-15302243.68	1	-0.966190629	-1.18416101	-2.132988022	-0.245896595	0.11412002	-1.160323788	0.266403882	-0.121445062	0.10801017	0.577422963	-0.194919121	0.110326472	-1.33916597	0.255257095	-0.178695094	0.099378435	0.444017637	0.940341723	0.12013804	-1.229203137	0.258292723	-0.13043653	0.110764729	0.482929412
196	2020/5/18T23:22:37.2	25.5762	34.3066	7	5.2	HT	ALN	26.046	40.885	110	731.3399283	60	60	60	1.30E-05	2.32E-06	-13895917.6	-13895926.8	-13895917.92	-13895927.12	1	-1.451018851	-1.714586688	-2.14974759	-0.826509415	0.104603435	-1.160323788	0.266403882	-0.121445062	0.10801017	0.673207561	-0.81379422	0.101050847	-1.33916597	0.255257095	-0.178695094	0.099378435	0.532467057	0.823476381	0.11129827	-1.229203137	0.258292723	-0.13043653	0.110764729	0.583035187
436	2020/9/18T16:28:18.6	25.2933	34.9338	52	5.3	HT	ALN	26.046	40.885	110	665.8954618	60	60	60	2.56E-05	5.71E-06	-3293581.82	-3293591.022	-3293607.91	-3293617.112	1	-1.536717751	-1.70827165	-2.068013095	-0.273046508	0.11201441	-1.160323788	0.266403882	-0.121445062	0.10801017	0.034045754	-0.229920928	0.108296396	-1.33916597	0.255257095	-0.178695094	0.099378435	-0.045091197	1.498907075	0.118139703	-1.229203137	0.258292723	-0.13043653	0.110764729	-0.010661012
476	2020/10/12T0:30:41.2	26.293	35.6314	21	5.1	HT	ALN	26.046	40.885	110	583.9392433	60	60	60	1.31E-05	1.25E-06	-1277466.44	-1277475.642	-1277466.23	-1277475.432	1	-2.602993557	-2.586630715	-3.235676667	-0.868885145	0.104558228	-1.160323788	0.266403882	-0.121445062	0.10801017	-0.436391415	-0.718689592	0.101010256	-1.33916597	0.255257095	-0.178695094	0.099378435	-0.434681597	0.762958612	0.111240824	-1.229203137	0.258292723	-0.13043653	0.110764729	-0.442376121
481	2020/10/12T4:11:27.9	26.2926	35.6319	8	5.2	HT	ALN	26.046	40.885	110	583.5571676	60	60	60	1.91E-05	1.65E-06	-1264222.99	-1264232.192	-1264227.9	-1264237.102	1	-2.406343848	-2.416076979	-2.94440224	-0.610439738	0.103953817	-1.160323788	0.266403882	-0.121445062	0.10801017	-0.498187113	-0.500548741	0.100412146	-1.33916597	0.255257095	-0.178695094	0.099378435	-0.482268713	1.103181701	0.110680821	-1.229203137	0.258292723	-0.13043653	0.110764729	-0.491324783
127	2020/4/11T10:22:55.6	26.1795	35.2176	21	4.8	HP	AMPL	21.2135	38.9224	260	603.5773087	60	60	60	9.41E-05	4.98E-06	-17139540.64	-17139549.84	-17139522.01	-17139531.21	1	0.257414271	0.138422493	-0.64746216	-0.225334057	0.110173683	0.594401418	0.20106629	-0.121445062	0.10801017	0.02574012	-0.112820926	0.106491447	0.355078538	0.19215071	-0.178695094	0.099378435	-0.009741563	1.008544521	0.116456224	0.664873954	0.194702006	-0.13043653	0.110764729	0.006175386
150	2020/5/2T12:51:9.2	25.6915	34.4366	9	6	HP	AMPL	21.2135	38.9224	260	638.6308388	60	60	60	0.000384474	4.22E-05	-15316239.44	-15316248.64	-15316249	-15316258.2	1	-0.207516113	-0.614546774	-0.021558173	-0.930147423	0.106111378	0.594401418	0.20106629	-0.121445062	0.10801017	0.265623102	-1.180843283	0.102497743	0.355078538	0.19215071	-0.178695094	0.099378435	0.305311526	1.292843971	0.112683034	0.664873954	0.194702006	-0.13043653	0.110764729	0.347779923
157	2020/5/2T16:44:31.3	25.6375	34.4577	5	4.8	HP	AMPL	21.2135	38.9224	260	633.7126133	60	60	60	0.000236694	7.23E-06	-15302216.99	-15302226.19	-15302241.61	-15302250.81	1	1.45924703	1.287114371	0.519794018	-0.245896595	0.11412002	0.594401418	0.20106629	-0.121445062	0.10801017	1.248135417	-0.194919121	0.110326472	0.355078538	0.19215071	-0.178695094	0.099378435	1.221048509	0.940341723	0.12013804	0.664873954	0.194702006	-0.13043653	0.110764729	1.241634361
184	2020/5/16T2:30:28.1	25.719	34.3469	8	4	HP	AMPL	21.2135	38.9224	260	648.0642641	60	60	60	4.11E-05	1.28E-06	-14143889.27	-14143898.47	-14143888.44	-14143897.64	1	1.563549831	1.258076721	-0.656693579	-0.030194475	0.132544136	0.594401418	0.20106629	-0.121445062	0.10801017	1.136736098	-0.03559069	0.128296532	0.355078538	0.19215071	-0.178695094	0.099378435	1.032682428	-0.033928878	0.137582008	0.664873954	0.194702006	-0.13043653	0.110764729	1.039417366
190	2020/5/18T4:18:23.7	25.6998	34.4962	14	4.6	HP	AMPL	21.2135	38.9224	260	633.9584388	60	60	60	4.84E-05	3.32E-06	-13964590.19	-13964599.39	-13964608.29	-13964617.49	1	0.306009914	0.106520828	-0.930828075	-0.515807616	0.110764242	0.594401418	0.20106629	-0.121445062	0.10801017	0.364809322	-0.461402119	0.107071669	0.355078538	0.19215071	-0.178695094	0.099378435	0.306937964	0.400549135	0.117004469	0.664873954	0.194702006	-0.13043653	0.110764729	0.330804857
193	2020/5/18T11:48:9.0	25.6073	34.3121	15	4.5	HP	AMPL	21.2135	38.9224	260	645.1480974	60	60	60	3.51E-05	1.44E-06	-13937597.94	-13937607.14	-13937603.38	-13937612.58	1	0.301370948	0.068434557	-1.101729877	-0.655706001	0.140087429	0.594401418	0.20106629	-0.121445062	0.10801017	0.500068741	-0.592341311	0.135626449	0.355078538	0.19215071	-0.178695094	0.099378435	0.399790886	0.119249391	0.14483218	0.664873954	0.194702006	-0.13043653	0.110764729	0.441202799
196	2020/5/18T23:22:37.2	25.5762	34.3066	7	5.2	HP	AMPL	21.2135	38.9224	260	643.8132372	60	60	60	8.27E-05	8.77E-06	-13895934.76	-13895943.96	-13895950.44	-13895959.64	1	-0.286238988	-0.497252285	-0.755691044	-0.826509415	0.104603435	0.594401418	0.20106629	-0.121445062	0.10801017	0.083262219	-0.81379422	0.101050847	0.355078538	0.19215071	-0.178695094	0.099378435	0.055556952	0.823476381	0.11129827	0.664873954	0.194702006	-0.13043653	0.110764729	0.083014642
316	2020/6/19T7:43:22.0	25.5606	34.3295	8	4.6	HP	AMPL	21.2135	38.9224	260	640.9267222	60	60	60	5.58E-05	2.37E-06	-11187501.8	-11187511	-11187506.88	-11187516.08	1	0.511097799	0.299177231	-0.733817188	-0.098974396	0.138576471	0.594401418	0.20106629	-0.121445062	0.10801017	0.153063987	-0.085283974	0.13413432	0.355078538	0.19215071	-0.178695094	0.099378435	0.123476222	0.783643284	0.143382198	0.664873954	0.194702006	-0.13043653	0.110764729	0.144721595
436	2020/9/18T16:28:18.6	25.2933	34.9338	52	5.3	HP	AMPL	21.2135	38.9224	260	574.9988539	60	60	60	0.000236442	1.48E-05	-3293598.41	-3293607.612	-3293614.74	-3293623.942	1	-0.04332645	-0.167417725	-0.350021723	-0.273046508	0.11201441	0.594401418	0.20106629	-0.121445062	0.10801017	-0.227288151	-0.229920928	0.108296396	0.355078538	0.19215071	-0.178695094	0.099378435	-0.19848178	1.498907075	0.118139703	0.664873954	0.194702006	-0.13043653	0.110764729	-0.186746731
476	2020/10/12T0:30:41.2	26.293	35.6314	21	5.1	HP	AMPL	21.2135	38.9224	260	580.1682511	60	60	60	6.91E-05	6.41E-06	-1277471.38	-1277480.582	-1277466.83	-1277476.032	1	-0.876152097	-0.954276743	-1.37257463	-0.868885145	0.104558228	0.594401418	0.20106629	-0.121445062	0.10801017	-0.46427516	-0.718689592	0.101010256	0.355078538	0.19215071	-0.178695094	0.099378435	-0.496572134	0.762958612	0.111240824	0.664873954	0.194702006	-0.13043653	0.110764729	-0.473351175
481	2020/10/12T4:11:27.9	26.2926	35.6319	8	5.2	HP	AMPL	21.2135	38.9224	260	579.773835	60	60	60	0.000182192	1.06E-05	-1264223.25	-1264232.452	-1264245.71	-1264254.912	1	-0.08503424	-0.189413799	-0.486995877	-0.610439738	0.103953817	0.594401418	0.20106629	-0.121445062	0.10801017	0.06839729	-0.500548741	0.100412146	0.355078538	0.19215071	-0.178695094	0.099378435	0.050149959	1.103181701	0.110680821	0.664873954	0.194702006	-0.13043653	0.110764729	0.072004489
71	2020/2/7T3:11:48.1	26.5741	35.1654	5	4.5	HP	AMT	21.7089	37.5324	482	509.5431408	60	60	60	9.46E-05	9.42E-06	-22695022.99	-22695032.19	-22695017.68	-22695026.88	1	0.199615565	0.631057142	-1.234612636	0.182106898	0.234443006	0.02222386	0.173828639	-0.121445062	0.10801017	0.132678017	0.253891132	0.227111951	0.311828636	0.165433102	-0.178695094	0.099378435	0.159430929	0.967705972	0.241008366	-0.04351318	0.168321075	-0.13043653	0.110764729	0.168250592
127	2020/4/11T10:22:55.6	26.1795	35.2176	21	4.8	HP	AMT	21.7089	37.5324	482	476.7501934	60	60	60	0.000127997	1.48E-05	-17139551.47	-17139560.67	-17139555.04	-17139564.24	1	-0.465054289	0.058795635	-1.414598637	-0.225334057	0.110173683	0.02222386	0.173828639	-0.121445062	0.10801017	-0.124550882	-0.112820926	0.106491447	0.311828636	0.165433102	-0.178695094	0.099378435	-0.04611852	1.008544521	0.116456224	-0.04351318	0.168321075	-0.13043653	0.110764729	-0.052573958
150	2020/5/2T12:51:9.2	25.6915	34.4366	9	6	HP	AMT	21.7089	37.5324	482	496.9713731	60	60	60	0.000602893	0.000141127	-15316247.12	-15316256.32	-15316240.57	-15316249.77	1	-0.845068574	-0.648179926	-0.752277116	-0.930147423	0.106111378	0.02222386	0.173828639	-0.121445062	0.10801017	0.200248199	-1.180843283	0.102497743	0.311828636	0.165433102	-0.178695094	0.099378435	0.314928275	1.292843971	0.112683034	-0.04351318	0.168321075	-0.13043653	0.110764729	0.325448114
157	2020/5/2T16:44:31.3	25.6375	34.4577	5	4.8	HP	AMT	21.7089	37.5324	482	491.7464574	60	60	60	9.35E-05	1.60E-05	-15302245.18	-15302254.38	-15302239.34	-15302248.54	1	-0.631238641	-0.130948588	-1.596285668	-0.245896595	0.11412002	0.02222386	0.173828639	-0.121445062	0.10801017	-0.270172696	-0.194919121	0.110326472	0.311828636	0.165433102	-0.178695094	0.099378435	-0.153764548	0.940341723	0.12013804	-0.04351318	0.168321075	-0.13043653	0.110764729	-0.166058191
184	2020/5/16T2:30:28.1	25.719	34.3469	8	4	HP	AMT	21.7089	37.5324	482	505.7932327	60	60	60	3.37E-05	2.93E-06	-14143886.63	-14143895.83	-14143905.04	-14143914.24	1	0.208286134	0.578472617	-2.03584713	-0.030194475	0.132544136	0.02222386	0.173828639	-0.121445062	0.10801017	0.353649959	-0.03559069	0.128296532	0.311828636	0.165433102	-0.178695094	0.099378435	0.396328225	-0.033928878	0.137582008	-0.04351318	0.168321075	-0.13043653	0.110764729	0.368650948
190	2020/5/18T4:18:23.7	25.6998	34.4962	14	4.6	HP	AMT	21.7089	37.5324	482	492.9962104	60	60	60	5.32E-05	8.77E-06	-13964607.73	-13964616.93	-13964608.16	-13964617.36	1	-0.753530761	-0.282136428	-2.017061872	-0.515807616	0.110764242	0.02222386	0.173828639	-0.121445062	0.10801017	-0.122553795	-0.461402119	0.107071669	0.311828636	0.165433102	-0.178695094	0.099378435	-0.03846939	0.400549135	0.117004469	-0.04351318	0.168321075	-0.13043653	0.110764729	-0.047041807
193	2020/5/18T11:48:9.0	25.6073	34.3121	15	4.5	HP	AMT	21.7089	37.5324	482	501.6026267	60	60	60	3.50E-05	4.78E-06	-13937618.83	-13937628.03	-13937619	-13937628.2	1	-0.872184481	-0.427970309	-2.298036646	-0.655706001	0.140087429	0.02222386	0.173828639	-0.121445062	0.10801017	-0.10130913	-0.592341311	0.135626449	0.311828636	0.165433102	-0.178695094	0.099378435	-0.053364079	0.119249391	0.14483218	-0.04351318	0.168321075	-0.13043653	0.110764729	-0.046716837
196	2020/5/18T23:22:37.2	25.5762	34.3066	7	5.2	HP	AMT	21.7089	37.5324	482	499.9006248	60	60	60	0.000125152	2.08E-05	-13895955.35	-13895964.55	-13895962.13	-13895971.33	1	-1.033551056	-0.581007543	-1.539089446	-0.826509415	0.104603435	0.02222386	0.173828639	-0.121445062	0.10801017	-0.091872291	-0.81379422	0.101050847	0.311828636	0.165433102	-0.178695094	0.099378435	0.015051595	0.823476381	0.11129827	-0.04351318	0.168321075	-0.13043653	0.110764729	0.008003373
337	2020/6/28T11:18:35.0	26.6757	35.5289	8	4.4	HP	AMT	21.7089	37.5324	482	497.248033	60	60	60	4.05E-05	3.40E-06	-10396997.78	-10397006.98	-10396996.95	-10397006.15	1	-0.553777644	-0.116063026	-2.131528545	-0.007932511	0.176900345	0.02222386	0.173828639	-0.121445062	0.10801017	-0.430675783	0.062978717	0.171382307	0.311828636	0.165433102	-0.178695094	0.099378435	-0.396776824	0.645813932	0.181209306	-0.04351318	0.168321075	-0.13043653	0.110764729	-0.406773277
436	2020/9/18T16:28:18.6	25.2933	34.9338	52	5.3	HP	AMT	21.7089	37.5324	482	435.5145437	60	60	60	0.000486264	3.73E-05	-3293617.98	-3293627.182	-3293629.6	-3293638.802	1	-0.474450902	0.034471903	-0.839271267	-0.273046508	0.11201441	0.02222386	0.173828639	-0.121445062	0.10801017	-0.086235044	-0.229920928	0.108296396	0.311828636	0.165433102	-0.178695094	0.099378435	0.04665775	1.498907075	0.118139703	-0.04351318	0.168321075	-0.13043653	0.110764729	0.032390858
476	2020/10/12T0:30:41.2	26.293	35.6314	21	5.1	HP	AMT	21.7089	37.5324	482	461.7408756	60	60	60	0.000226922	2.58E-05	-1277489.42	-1277498.622	-1277489.56	-1277498.762	1	-0.641034246	-0.099992718	-1.199403446	-0.868885145	0.104558228	0.02222386	0.173828639	-0.121445062	0.10801017	0.343020249	-0.718689592	0.101010256	0.311828636	0.165433102	-0.178695094	0.099378435	0.400961793	0.762958612	0.111240824	-0.04351318	0.168321075	-0.13043653	0.110764729	0.408207143
477	2020/10/12T0:44:26.5	26.3168	35.6003	27	4.4	HP	AMT	21.7089	37.5324	482	465.6009047	60	60	60	4.22E-05	3.41E-06	-1276664.92	-1276674.122	-1276663	-1276672.202	1	-0.822327317	-0.335062733	-2.367507734	-0.138118991	0.145103528	0.02222386	0.173828639	-0.121445062	0.10801017	-0.569038976	-0.023105317	0.140510509	0.311828636	0.165433102	-0.178695094	0.099378435	-0.529692498	0.567691467	0.149660425	-0.04351318	0.168321075	-0.13043653	0.110764729	-0.564630001
481	2020/10/12T4:11:27.9	26.2926	35.6319	8	5.2	HP	AMT	21.7089	37.5324	482	461.2605375	60	60	60	0.000289627	3.06E-05	-1264239.33	-1264248.532	-1264241.23	-1264250.432	1	-0.570531437	-0.061986291	-1.040626557	-0.610439738	0.103953817	0.02222386	0.173828639	-0.121445062	0.10801017	0.155077651	-0.500548741	0.100412146	0.311828636	0.165433102	-0.178695094	0.099378435	0.220827369	1.103181701	0.110680821	-0.04351318	0.168321075	-0.13043653	0.110764729	0.226760943
