eventname	origintime	hyplon	hyplat	hypdepth (km)	mw	network	station	stlon	stlat	stelev	hypdist	duration_e	duration_n	duration_horiz	pga	pgv	tPGV_origin	tPGV_parriv	tPGA_origin	tPGA_parriv	polygon	ask14	sk13	z16	ask14_dE	ask14_dE_std	ask14_dS	ask14_dS_std	ask14_dPol	ask14_dPol_std	ask14_dP	sk13_dE	sk13_dE_std	sk13_dS	sk13_dS_std	sk13_dPol	sk13_dPol_std	sk13_dP	z16_dE	z16_dE_std	z16_dS	z16_dS_std	z16_dPol	z16_dPol_std	z16_dP
190	2020/5/18T4:18:23.7	25.6998	34.4962	14	4.6	HA	ATHU	23.7845	37.9665	308	422.0324481	60	60	60	6.14E-05	4.77E-06	-13964621.35	-13964630.55	-13964614.55	-13964623.75	1	-1.528364646	-1.354270875	-2.744036221	-0.515807616	0.110764242	-1.40133851	0.233899236	-0.121445062	0.10801017	0.52617469	-0.461402119	0.107071669	-1.295210933	0.223979492	-0.178695094	0.099378435	0.496435732	0.400549135	0.117004469	-1.317229802	0.226766728	-0.13043653	0.110764729	0.499700467
196	2020/5/18T23:22:37.2	25.5762	34.3066	7	5.2	HA	ATHU	23.7845	37.9665	308	436.9908007	60	60	60	5.64E-05	7.28E-06	-13895959.84	-13895969.04	-13895986.53	-13895995.73	1	-2.656146033	-2.519128847	-3.128262835	-0.826509415	0.104603435	-1.40133851	0.233899236	-0.121445062	0.10801017	-0.290904899	-0.81379422	0.101050847	-1.295210933	0.223979492	-0.178695094	0.099378435	-0.316030139	0.823476381	0.11129827	-1.317229802	0.226766728	-0.13043653	0.110764729	-0.307453393
436	2020/9/18T16:28:18.6	25.2933	34.9338	52	5.3	HA	ATHU	23.7845	37.9665	308	366.4331954	60	60	60	0.00020344	1.81E-05	-3293647.04	-3293656.242	-3293640.45	-3293649.652	1	-2.25828211	-2.072986103	-2.596450331	-0.273046508	0.11201441	-1.40133851	0.233899236	-0.121445062	0.10801017	-0.446503883	-0.229920928	0.108296396	-1.295210933	0.223979492	-0.178695094	0.099378435	-0.453760687	1.498907075	0.118139703	-1.317229802	0.226766728	-0.13043653	0.110764729	-0.451071584
476	2020/10/12T0:30:41.2	26.293	35.6314	21	5.1	HA	ATHU	23.7845	37.9665	308	343.0778466	60	60	60	0.000119017	7.69E-06	-1277496.145	-1277505.347	-1277507.175	-1277516.377	1	-2.719928434	-2.42795602	-3.199873957	-0.868885145	0.104558228	-1.40133851	0.233899236	-0.121445062	0.10801017	-0.31231157	-0.718689592	0.101010256	-1.295210933	0.223979492	-0.178695094	0.099378435	-0.31996194	0.762958612	0.111240824	-1.317229802	0.226766728	-0.13043653	0.110764729	-0.318546746
481	2020/10/12T4:11:27.9	26.2926	35.6319	8	5.2	HA	ATHU	23.7845	37.9665	308	342.4505217	60	60	60	0.000214435	1.17E-05	-1264262.711	-1264271.913	-1264262.791	-1264271.993	1	-2.29852533	-2.047242349	-2.698266156	-0.610439738	0.103953817	-1.40133851	0.233899236	-0.121445062	0.10801017	-0.149353872	-0.500548741	0.100412146	-1.295210933	0.223979492	-0.178695094	0.099378435	-0.15738912	1.103181701	0.110680821	-1.317229802	0.226766728	-0.13043653	0.110764729	-0.157162034
105	2020/3/21T18:58:34.2	25.8925	35.5376	10	3.7	HA	AXAR	22.659	38.7664	406	459.2972388	60	60	60	4.90E-05	3.05E-06	-18923025.89	-18923035.09	-18923025.99	-18923035.19	1	0.601025963	0.558777498	-1.951630212	0.690953562	0.183445759	0.446401232	0.191943189	-0.121445062	0.10801017	-0.398935621	0.695828381	0.177746643	0.316519772	0.183269265	-0.178695094	0.099378435	-0.3594771	0.304212402	0.187826546	0.574865647	0.185752649	-0.13043653	0.110764729	-0.50365224
127	2020/4/11T10:22:55.6	26.1795	35.2176	21	4.8	HA	AXAR	22.659	38.7664	406	503.6749223	60	60	60	0.000228053	2.41E-05	-17139559.1	-17139568.3	-17139556.36	-17139565.56	1	0.206347456	0.242684997	-0.601335535	-0.225334057	0.110173683	0.446401232	0.191943189	-0.121445062	0.10801017	0.122673491	-0.112820926	0.106491447	0.316519772	0.183269265	-0.178695094	0.099378435	0.133079707	1.008544521	0.116456224	0.574865647	0.185752649	-0.13043653	0.110764729	0.142310318
150	2020/5/2T12:51:9.2	25.6915	34.4366	9	6	HA	AXAR	22.659	38.7664	406	551.7876811	60	60	60	0.000848767	0.000171193	-15316233.12	-15316242.32	-15316236.17	-15316245.37	1	-0.17397608	-0.483040604	0.058096389	-0.930147423	0.106111378	0.446401232	0.191943189	-0.121445062	0.10801017	0.44716332	-1.180843283	0.102497743	0.316519772	0.183269265	-0.178695094	0.099378435	0.475376462	1.292843971	0.112683034	0.574865647	0.185752649	-0.13043653	0.110764729	0.517442792
153	2020/5/2T13:33:52.6	25.4242	34.3707	5	4.7	HA	AXAR	22.659	38.7664	406	546.9456434	60	60	60	0.000131762	1.70E-05	-15313683.51	-15313692.71	-15313683.34	-15313692.54	1	0.289474331	0.241394568	-0.711696036	-0.494701994	0.146451416	0.446401232	0.191943189	-0.121445062	0.10801017	0.475168303	-0.434426957	0.141806343	0.316519772	0.183269265	-0.178695094	0.099378435	0.453395309	0.550454075	0.151027598	0.574865647	0.185752649	-0.13043653	0.110764729	0.490040262
157	2020/5/2T16:44:31.3	25.6375	34.4577	5	4.8	HA	AXAR	22.659	38.7664	406	547.3146045	60	60	60	0.000354391	2.66E-05	-15302230.51	-15302239.71	-15302267.95	-15302277.15	1	1.066999574	1.031760379	0.212423465	-0.245896595	0.11412002	0.446401232	0.191943189	-0.121445062	0.10801017	1.003888147	-0.194919121	0.110326472	0.316519772	0.183269265	-0.178695094	0.099378435	1.004253283	0.940341723	0.12013804	0.574865647	0.185752649	-0.13043653	0.110764729	1.024272116
184	2020/5/16T2:30:28.1	25.719	34.3469	8	4	HA	AXAR	22.659	38.7664	406	561.7250174	60	60	60	4.87E-05	3.37E-06	-14143870.14	-14143879.34	-14143898.77	-14143907.97	1	0.94174879	0.774573225	-1.192925163	-0.030194475	0.132544136	0.446401232	0.191943189	-0.121445062	0.10801017	0.662935243	-0.03559069	0.128296532	0.316519772	0.183269265	-0.178695094	0.099378435	0.587737698	-0.033928878	0.137582008	0.574865647	0.185752649	-0.13043653	0.110764729	0.593194089
190	2020/5/18T4:18:23.7	25.6998	34.4962	14	4.6	HA	AXAR	22.659	38.7664	406	546.4682824	60	60	60	6.94E-05	1.11E-05	-13964598.2	-13964607.4	-13964608.7	-13964617.9	1	-0.1411314	-0.201871194	-1.291927699	-0.515807616	0.110764242	0.446401232	0.191943189	-0.121445062	0.10801017	0.065668194	-0.461402119	0.107071669	0.316519772	0.183269265	-0.178695094	0.099378435	0.037104708	0.400549135	0.117004469	0.574865647	0.185752649	-0.13043653	0.110764729	0.05971354
193	2020/5/18T11:48:9.0	25.6073	34.3121	15	4.5	HA	AXAR	22.659	38.7664	406	560.5013629	60	60	60	4.31E-05	6.50E-06	-13937608.27	-13937617.47	-13937607.88	-13937617.08	1	-0.268234028	-0.366035456	-1.587743063	-0.655706001	0.140087429	0.446401232	0.191943189	-0.121445062	0.10801017	0.078463951	-0.592341311	0.135626449	0.316519772	0.183269265	-0.178695094	0.099378435	0.003879638	0.119249391	0.14483218	0.574865647	0.185752649	-0.13043653	0.110764729	0.04519792
196	2020/5/18T23:22:37.2	25.5762	34.3066	7	5.2	HA	AXAR	22.659	38.7664	406	559.5774111	60	60	60	0.000159077	2.82E-05	-13895940.16	-13895949.36	-13895950.35	-13895959.55	1	-0.396736057	-0.481161637	-0.790661033	-0.826509415	0.104603435	0.446401232	0.191943189	-0.121445062	0.10801017	0.120765335	-0.81379422	0.101050847	0.316519772	0.183269265	-0.178695094	0.099378435	0.110206366	0.823476381	0.11129827	0.574865647	0.185752649	-0.13043653	0.110764729	0.13805296
316	2020/6/19T7:43:22.0	25.5606	34.3295	8	4.6	HA	AXAR	22.659	38.7664	406	556.6767163	60	60	60	9.53E-05	1.14E-05	-11187507.8	-11187517	-11187517.68	-11187526.88	1	0.273475669	0.19559332	-0.888519477	-0.098974396	0.138576471	0.446401232	0.191943189	-0.121445062	0.10801017	0.063442043	-0.085283974	0.13413432	0.316519772	0.183269265	-0.178695094	0.099378435	0.058451077	0.783643284	0.143382198	0.574865647	0.185752649	-0.13043653	0.110764729	0.080027613
317	2020/6/19T20:34:11.9	25.5322	34.5557	30	4.4	HA	AXAR	22.659	38.7664	406	534.0095241	60	60	60	6.20E-05	6.13E-06	-11141261.26	-11141270.46	-11141265.28	-11141274.48	1	0.058937304	-0.008002344	-1.388070471	-0.16009215	0.147186193	0.446401232	0.191943189	-0.121445062	0.10801017	-0.089978568	-0.097269299	0.142537541	0.316519772	0.183269265	-0.178695094	0.099378435	-0.133159262	0.488463149	0.151742973	0.574865647	0.185752649	-0.13043653	0.110764729	-0.124343246
436	2020/9/18T16:28:18.6	25.2933	34.9338	52	5.3	HA	AXAR	22.659	38.7664	406	488.6563868	60	60	60	0.000638172	6.92E-05	-3293621.58	-3293630.782	-3293629.22	-3293638.422	1	0.147014229	0.139331349	-0.092192149	-0.273046508	0.11201441	0.446401232	0.191943189	-0.121445062	0.10801017	0.111052714	-0.229920928	0.108296396	0.316519772	0.183269265	-0.178695094	0.099378435	0.14682606	1.498907075	0.118139703	0.574865647	0.185752649	-0.13043653	0.110764729	0.16109115
476	2020/10/12T0:30:41.2	26.293	35.6314	21	5.1	HA	AXAR	22.659	38.7664	406	474.8829312	60	60	60	0.000240295	2.19E-05	-1277484.63	-1277493.832	-1277484.52	-1277493.722	1	-0.624109649	-0.547473306	-1.025217826	-0.868885145	0.104558228	0.446401232	0.191943189	-0.121445062	0.10801017	-0.064232527	-0.718689592	0.101010256	0.316519772	0.183269265	-0.178695094	0.099378435	-0.051209931	0.762958612	0.111240824	0.574865647	0.185752649	-0.13043653	0.110764729	-0.035986064
481	2020/10/12T4:11:27.9	26.2926	35.6319	8	5.2	HA	AXAR	22.659	38.7664	406	474.4091976	60	60	60	0.000391673	3.23E-05	-1264222.67	-1264231.872	-1264244.16	-1264253.362	1	-0.309708689	-0.264792868	-0.6217778	-0.610439738	0.103953817	0.446401232	0.191943189	-0.121445062	0.10801017	-0.008276973	-0.500548741	0.100412146	0.316519772	0.183269265	-0.178695094	0.099378435	0.013329656	1.103181701	0.110680821	0.574865647	0.185752649	-0.13043653	0.110764729	0.027230873
127	2020/4/11T10:22:55.6	26.1795	35.2176	21	4.8	HP	AXS	21.3763	38.1962	102	541.9835544	60	60	60	3.91E-05	4.45E-06	-17139545.58	-17139554.78	-17139540.71	-17139549.91	1	-1.282481729	-1.214564338	-2.269980312	-0.225334057	0.110173683	-0.279032259	0.206283023	-0.121445062	0.10801017	-0.640722204	-0.112820926	0.106491447	-0.395792479	0.19722461	-0.178695094	0.099378435	-0.611857377	1.008544521	0.116456224	-0.317653475	0.199811373	-0.13043653	0.110764729	-0.633815337
150	2020/5/2T12:51:9.2	25.6915	34.4366	9	6	HP	AXS	21.3763	38.1962	102	569.3209462	60	60	60	0.006312087	5.41E-05	-15316230.46	-15316239.66	-15316230.48	-15316239.68	1	1.895628375	1.659739895	1.978019329	-0.930147423	0.106111378	-0.279032259	0.206283023	-0.121445062	0.10801017	3.242201266	-1.180843283	0.102497743	-0.395792479	0.19722461	-0.178695094	0.099378435	3.330469212	1.292843971	0.112683034	-0.317653475	0.199811373	-0.13043653	0.110764729	3.329884855
157	2020/5/2T16:44:31.3	25.6375	34.4577	5	4.8	HP	AXS	21.3763	38.1962	102	564.2286722	60	60	60	4.61E-05	5.86E-06	-15302246.43	-15302255.63	-15302254.44	-15302263.64	1	-0.906388782	-0.875871082	-1.918330189	-0.245896595	0.11412002	-0.279032259	0.206283023	-0.121445062	0.10801017	-0.244066719	-0.194919121	0.110326472	-0.395792479	0.19722461	-0.178695094	0.099378435	-0.191065927	0.940341723	0.12013804	-0.317653475	0.199811373	-0.13043653	0.110764729	-0.213962416
190	2020/5/18T4:18:23.7	25.6998	34.4962	14	4.6	HP	AXS	21.3763	38.1962	102	565.010401	60	60	60	3.29E-05	3.56E-06	-13964602.91	-13964612.11	-13964592.56	-13964601.76	1	-0.805486119	-0.803210794	-2.115427734	-0.515807616	0.110764242	-0.279032259	0.206283023	-0.121445062	0.10801017	0.126746966	-0.461402119	0.107071669	-0.395792479	0.19722461	-0.178695094	0.099378435	0.148077359	0.400549135	0.117004469	-0.317653475	0.199811373	-0.13043653	0.110764729	0.128732627
193	2020/5/18T11:48:9.0	25.6073	34.3121	15	4.5	HP	AXS	21.3763	38.1962	102	574.8132759	60	60	60	1.96E-05	1.57E-06	-13937609.3	-13937618.5	-13937615.22	-13937624.42	1	-1.015612942	-1.04350317	-2.489745866	-0.655706001	0.140087429	-0.279032259	0.206283023	-0.121445062	0.10801017	0.056518528	-0.592341311	0.135626449	-0.395792479	0.19722461	-0.178695094	0.099378435	0.038724176	0.119249391	0.14483218	-0.317653475	0.199811373	-0.13043653	0.110764729	0.035714239
196	2020/5/18T23:22:37.2	25.5762	34.3066	7	5.2	HP	AXS	21.3763	38.1962	102	573.2830582	60	60	60	4.69E-05	7.80E-06	-13895943.83	-13895953.03	-13895948.18	-13895957.38	1	-1.584272604	-1.596406308	-2.130842602	-0.826509415	0.104603435	-0.279032259	0.206283023	-0.121445062	0.10801017	-0.341337721	-0.81379422	0.101050847	-0.395792479	0.19722461	-0.178695094	0.099378435	-0.292726054	0.823476381	0.11129827	-0.317653475	0.199811373	-0.13043653	0.110764729	-0.309609487
316	2020/6/19T7:43:22.0	25.5606	34.3295	8	4.6	HP	AXS	21.3763	38.1962	102	570.4275381	60	60	60	2.08E-05	2.73E-06	-11187503.14	-11187512.34	-11187500.14	-11187509.34	1	-1.214826027	-1.221767227	-2.530781251	-0.098974396	0.138576471	-0.279032259	0.206283023	-0.121445062	0.10801017	-0.699426162	-0.085283974	0.13413432	-0.395792479	0.19722461	-0.178695094	0.099378435	-0.646597219	0.783643284	0.143382198	-0.317653475	0.199811373	-0.13043653	0.110764729	-0.669715039
476	2020/10/12T0:30:41.2	26.293	35.6314	21	5.1	HP	AXS	21.3763	38.1962	102	522.7768587	60	60	60	4.07E-05	3.86E-06	-1277478.54	-1277487.742	-1277480.17	-1277489.372	1	-2.030895001	-1.933816524	-2.618403639	-0.868885145	0.104558228	-0.279032259	0.206283023	-0.121445062	0.10801017	-0.745584388	-0.718689592	0.101010256	-0.395792479	0.19722461	-0.178695094	0.099378435	-0.725240898	0.762958612	0.111240824	-0.317653475	0.199811373	-0.13043653	0.110764729	-0.736652755
481	2020/10/12T4:11:27.9	26.2926	35.6319	8	5.2	HP	AXS	21.3763	38.1962	102	522.3523613	60	60	60	6.74E-05	6.74E-06	-1264218.86	-1264228.062	-1264218.72	-1264227.922	1	-1.701719736	-1.633752367	-2.197598194	-0.610439738	0.103953817	-0.279032259	0.206283023	-0.121445062	0.10801017	-0.674854529	-0.500548741	0.100412146	-0.395792479	0.19722461	-0.178695094	0.099378435	-0.643317592	1.103181701	0.110680821	-0.317653475	0.199811373	-0.13043653	0.110764729	-0.656070399
82	2020/2/20T0:32:30.3	23.839	35.1997	7	3.5	HC	CHAN	24.0428	35.5193	37	40.61934829	60	60	60	0.010146664	0.000419183	-21581446.11	-21581455.31	-21581449.18	-21581458.38	1	0.236791553	0.186693018	-2.849267732	0.514694806	0.290562719	-0.234576525	0.182611711	-0.121445062	0.10801017	0.094066481	0.280660664	0.281259769	-0.04165745	0.174132944	-0.178695094	0.099378435	0.041783359	-0.201971439	0.303192752	-0.150153021	0.176716448	-0.13043653	0.110764729	-0.170087251
127	2020/4/11T10:22:55.6	26.1795	35.2176	21	4.8	HC	CHAN	24.0428	35.5193	37	198.1565792	60	60	60	0.002313405	0.000254982	-17139579.1	-17139588.3	-17139579.25	-17139588.45	1	-0.893047837	-0.47547642	-1.663000125	-0.225334057	0.110173683	-0.234576525	0.182611711	-0.121445062	0.10801017	-0.295744046	-0.112820926	0.106491447	-0.04165745	0.174132944	-0.178695094	0.099378435	-0.226904489	1.008544521	0.116456224	-0.150153021	0.176716448	-0.13043653	0.110764729	-0.194335604
144	2020/4/25T10:48:35.6	24.0335	34.866	14	3.9	HC	CHAN	24.0428	35.5193	37	73.83139122	60	60	60	0.004555674	0.000383129	-15928467.41	-15928476.61	-15928465.52	-15928474.72	1	-0.427110473	-0.248472616	-2.691847111	0.585431076	0.210570382	-0.234576525	0.182611711	-0.121445062	0.10801017	-0.640571815	0.565576142	0.204014677	-0.04165745	0.174132944	-0.178695094	0.099378435	-0.678297753	0.497727305	0.215766298	-0.150153021	0.176716448	-0.13043653	0.110764729	-0.712365374
184	2020/5/16T2:30:28.1	25.719	34.3469	8	4	HC	CHAN	24.0428	35.5193	37	201.0755628	60	60	60	0.000323958	2.83E-05	-14143927.28	-14143936.48	-14143938.18	-14143947.38	1	-1.096369146	-0.787137753	-3.133001746	-0.030194475	0.132544136	-0.234576525	0.182611711	-0.121445062	0.10801017	-0.694204937	-0.03559069	0.128296532	-0.04165745	0.174132944	-0.178695094	0.099378435	-0.615796058	-0.033928878	0.137582008	-0.150153021	0.176716448	-0.13043653	0.110764729	-0.621863826
190	2020/5/18T4:18:23.7	25.6998	34.4962	14	4.6	HC	CHAN	24.0428	35.5193	37	189.6171851	60	60	60	0.000783637	9.04E-05	-13964652.25	-13964661.45	-13964653.59	-13964662.79	1	-1.662339568	-1.26952285	-2.727787066	-0.515807616	0.110764242	-0.234576525	0.182611711	-0.121445062	0.10801017	-0.774562218	-0.461402119	0.107071669	-0.04165745	0.174132944	-0.178695094	0.099378435	-0.672369726	0.400549135	0.117004469	-0.150153021	0.176716448	-0.13043653	0.110764729	-0.651127159
193	2020/5/18T11:48:9.0	25.6073	34.3121	15	4.5	HC	CHAN	24.0428	35.5193	37	196.4672219	60	60	60	0.000573269	6.67E-05	-13937667.7	-13937676.9	-13937670.62	-13937679.82	1	-1.665152486	-1.287354724	-2.885828543	-0.655706001	0.140087429	-0.234576525	0.182611711	-0.121445062	0.10801017	-0.637476751	-0.592341311	0.135626449	-0.04165745	0.174132944	-0.178695094	0.099378435	-0.559262408	0.119249391	0.14483218	-0.150153021	0.176716448	-0.13043653	0.110764729	-0.527868892
196	2020/5/18T23:22:37.2	25.5762	34.3066	7	5.2	HC	CHAN	24.0428	35.5193	37	194.3795982	60	60	60	0.002083031	0.000261259	-13896002.49	-13896011.69	-13896001.73	-13896010.93	1	-1.770480926	-1.438750781	-2.121798474	-0.826509415	0.104603435	-0.234576525	0.182611711	-0.121445062	0.10801017	-0.572001777	-0.81379422	0.101050847	-0.04165745	0.174132944	-0.178695094	0.099378435	-0.489205556	0.823476381	0.11129827	-0.150153021	0.176716448	-0.13043653	0.110764729	-0.468065813
317	2020/6/19T20:34:11.9	25.5322	34.5557	30	4.4	HC	CHAN	24.0428	35.5193	37	175.4951678	60	60	60	0.000952753	7.97E-05	-11141306.37	-11141315.57	-11141318.21	-11141327.41	1	-1.236257742	-0.868797795	-2.609503752	-0.16009215	0.147186193	-0.234576525	0.182611711	-0.121445062	0.10801017	-0.704195858	-0.097269299	0.142537541	-0.04165745	0.174132944	-0.178695094	0.099378435	-0.635777491	0.488463149	0.151742973	-0.150153021	0.176716448	-0.13043653	0.110764729	-0.620757859
318	2020/6/19T21:17:15.2	25.5542	34.5483	15	4.5	HC	CHAN	24.0428	35.5193	37	175.6414912	60	60	60	0.001151958	7.70E-05	-11138728.44	-11138737.64	-11138736.25	-11138745.45	1	-1.259637614	-0.878761704	-2.476210077	-0.398291969	0.154560632	-0.234576525	0.182611711	-0.121445062	0.10801017	-0.489375911	-0.313895484	0.1497064	-0.04165745	0.174132944	-0.178695094	0.099378435	-0.429115215	0.405278012	0.158960249	-0.150153021	0.176716448	-0.13043653	0.110764729	-0.404279047
414	2020/8/25T16:37:46.8	23.7794	35.1897	20	3.5	HC	CHAN	24.0428	35.5193	37	48.08206993	60	60	60	0.00503368	0.000196278	-5366728.502	-5366737.704	-5366731.352	-5366740.554	1	-0.196185407	-0.192172198	-3.251367478	0.502119409	0.258331935	-0.234576525	0.182611711	-0.121445062	0.10801017	-0.326335082	0.338381593	0.250176429	-0.04165745	0.174132944	-0.178695094	0.099378435	-0.394802786	-0.206790109	0.266971325	-0.150153021	0.176716448	-0.13043653	0.110764729	-0.567368326
436	2020/9/18T16:28:18.6	25.2933	34.9338	52	5.3	HC	CHAN	24.0428	35.5193	37	141.0197744	60	60	60	0.011862447	0.001340769	-3293671.886	-3293681.088	-3293666.406	-3293675.608	1	-0.940801787	-0.699788648	-1.25384539	-0.273046508	0.11201441	-0.234576525	0.182611711	-0.121445062	0.10801017	-0.295785545	-0.229920928	0.108296396	-0.04165745	0.174132944	-0.178695094	0.099378435	-0.334116715	1.498907075	0.118139703	-0.150153021	0.176716448	-0.13043653	0.110764729	-0.275543423
446	2020/9/24T18:52:14.0	25.9195	35.2927	16	4.1	HC	CHAN	24.0428	35.5193	37	173.0557619	60	60	60	0.001800835	9.73E-05	-2766625.461	-2766634.663	-2766625.511	-2766634.713	1	0.011137508	0.33829499	-1.850745331	0.541387096	0.169266907	-0.234576525	0.182611711	-0.121445062	0.10801017	-0.158279854	0.576252118	0.163985278	-0.04165745	0.174132944	-0.178695094	0.099378435	-0.102206123	0.782007589	0.173513417	-0.150153021	0.176716448	-0.13043653	0.110764729	-0.155543878
464	2020/10/2T15:28:17.4	24.0271	34.6838	34	3.6	HC	CHAN	24.0428	35.5193	37	98.75448986	60	60	60	0.001071109	0.000106067	-2087682.636	-2087691.838	-2087682.756	-2087691.958	1	-0.67949946	-0.477673258	-3.446136888	-0.097151574	0.225831797	-0.234576525	0.182611711	-0.121445062	0.10801017	-0.210378152	-0.149868871	0.218782997	-0.04165745	0.174132944	-0.178695094	0.099378435	-0.192053382	-0.654375181	0.231839588	-0.150153021	0.176716448	-0.13043653	0.110764729	-0.314552665
475	2020/10/11T14:55:27.8	24.1507	34.6848	42	3.9	HC	CHAN	24.0428	35.5193	37	102.1529051	60	60	60	0.002353269	0.00019844	-1312057.272	-1312066.474	-1312054.452	-1312063.654	1	-0.471095512	-0.222735241	-2.697948576	-0.191962899	0.225268322	-0.234576525	0.182611711	-0.121445062	0.10801017	0.092837121	-0.191994007	0.218245943	-0.04165745	0.174132944	-0.178695094	0.099378435	0.105009771	-0.275827603	0.231236895	-0.150153021	0.176716448	-0.13043653	0.110764729	0.055088069
