eventname	origintime	hyplon	hyplat	hypdepth (km)	mw	network	station	stlon	stlat	stelev	hypdist	duration_e	duration_n	duration_horiz	pga	pgv	tPGV_origin	tPGV_parriv	tPGA_origin	tPGA_parriv	polygon	ask14	sk13	z16	ask14_dE	ask14_dE_std	ask14_dS	ask14_dS_std	ask14_dPol	ask14_dPol_std	ask14_dP	sk13_dE	sk13_dE_std	sk13_dS	sk13_dS_std	sk13_dPol	sk13_dPol_std	sk13_dP	z16_dE	z16_dE_std	z16_dS	z16_dS_std	z16_dPol	z16_dPol_std	z16_dP
317	2020/6/19T20:34:11.9	25.5322	34.5557	30	4.4	HT	DMLN	20.3734	38.2385	370	617.9513753	60	60	60	0.00023659	3.24E-06	-11141277.34	-11141286.54	-11141276.59	-11141285.79	1	2.11819349	1.976845438	0.413772663	-0.16009215	0.147186193	2.02968046	0.243918186	-0.121445062	0.10801017	0.38599839	-0.097269299	0.142537541	1.800783925	0.23362974	-0.178695094	0.099378435	0.367424367	0.488463149	0.151742973	1.900361411	0.236528303	-0.13043653	0.110764729	0.352004123
196	2020/5/18T23:22:37.2	25.5762	34.3066	7	5.2	HT	DRAG	20.5746	38.6839	348	660.6910618	0	60	60	0.000219658	1.03E-05	-13895923.74	-13895932.94	-13895951.49	-13895960.69	1	0.885458767	0.603514755	0.355699126	-0.826509415	0.104603435	2.728442292	0.251337171	-0.121445062	0.10801017	-0.8790809	-0.81379422	0.101050847	2.312307179	0.240663442	-0.178695094	0.099378435	-0.800904649	0.823476381	0.11129827	2.503887166	0.24553901	-0.13043653	0.110764729	-0.644608401
217	2020/5/20T18:0:34.6	25.6934	34.3652	8	4	HT	DRAG	20.5746	38.6839	348	663.0301939	0	60	60	0.000265823	1.66E-05	-13742469.81	-13742479.01	-13742469.81	-13742479.01	1	3.609054862	3.23461621	1.329324212	-0.545314922	0.272339967	2.728442292	0.251337171	-0.121445062	0.10801017	1.563320702	-0.476013092	0.263693448	2.312307179	0.240663442	-0.178695094	0.099378435	1.492415678	-0.472500412	0.28249966	2.503887166	0.24553901	-0.13043653	0.110764729	1.624993478
240	2020/5/25T1:28:42.6	25.5798	34.3396	22	3.5	HT	DRAG	20.5746	38.6839	348	658.5001296	0	60	60	0.000169229	1.50E-05	-13369972.48	-13369981.68	-13369979.89	-13369989.09	1	4.193143408	3.759577765	1.025961793	-0.04992465	0.313344141	2.728442292	0.251337171	-0.121445062	0.10801017	1.652018976	-0.053016917	0.303168409	2.312307179	0.240663442	-0.178695094	0.099378435	1.594381058	-0.62958959	0.329716347	2.503887166	0.24553901	-0.13043653	0.110764729	1.478720237
342	2020/6/29T6:41:21.9	26.6922	35.5417	2	3.5	HT	DRAG	20.5746	38.6839	348	645.718711	0	60	60	0.000244322	1.51E-05	-10327216.85	-10327226.05	-10327224.89	-10327234.09	1	4.443435651	4.032865919	1.291167741	0.834817451	0.312945183	2.728442292	0.251337171	-0.121445062	0.10801017	1.017569117	0.825142576	0.302787745	2.312307179	0.240663442	-0.178695094	0.099378435	0.989509719	0.377842797	0.329220244	2.503887166	0.24553901	-0.13043653	0.110764729	0.736493799
436	2020/9/18T16:28:18.6	25.2933	34.9338	52	5.3	HT	DRAG	20.5746	38.6839	348	594.1597367	60	60	60	0.000974312	2.95E-05	-3293592.92	-3293602.122	-3293601.23	-3293610.432	1	1.591610835	1.395222296	1.224067032	-0.273046508	0.11201441	2.728442292	0.251337171	-0.121445062	0.10801017	-0.72639174	-0.229920928	0.108296396	2.312307179	0.240663442	-0.178695094	0.099378435	-0.5930704	1.498907075	0.118139703	2.503887166	0.24553901	-0.13043653	0.110764729	-0.451671189
476	2020/10/12T0:30:41.2	26.293	35.6314	21	5.1	HT	DRAG	20.5746	38.6839	348	610.7290959	60	60	60	0.000299155	1.19E-05	-1277450.64	-1277459.842	-1277477.29	-1277486.492	1	0.915441728	0.743677555	0.343836384	-0.868885145	0.104558228	2.728442292	0.251337171	-0.121445062	0.10801017	-0.80672221	-0.718689592	0.101010256	2.312307179	0.240663442	-0.178695094	0.099378435	-0.755846477	0.762958612	0.111240824	2.503887166	0.24553901	-0.13043653	0.110764729	-0.595953373
481	2020/10/12T4:11:27.9	26.2926	35.6319	8	5.2	HT	DRAG	20.5746	38.6839	348	610.3512933	60	60	60	0.000387506	1.71E-05	-1264211.32	-1264220.522	-1264210.97	-1264220.172	1	0.9942861	0.797667684	0.518533163	-0.610439738	0.103953817	2.728442292	0.251337171	-0.121445062	0.10801017	-0.986323244	-0.500548741	0.100412146	2.312307179	0.240663442	-0.178695094	0.099378435	-0.919997199	1.103181701	0.110680821	2.503887166	0.24553901	-0.13043653	0.110764729	-0.761479683
127	2020/4/11T10:22:55.6	26.1795	35.2176	21	4.8	HP	DRO	21.71	37.952	465	502.4112567	60	60	60	0.000552171	1.25E-05	-17139551.13	-17139560.33	-17139572.46	-17139581.66	1	1.037743452	1.116698483	0.038981815	-0.225334057	0.110173683	0.503561153	0.188144628	-0.121445062	0.10801017	0.896909565	-0.112820926	0.106491447	0.377683479	0.179551118	-0.178695094	0.099378435	0.945929486	1.008544521	0.116456224	0.423745859	0.182034385	-0.13043653	0.110764729	0.933747456
184	2020/5/16T2:30:28.1	25.719	34.3469	8	4	HP	DRO	21.71	37.952	465	538.6359226	60	60	60	3.05E-05	2.14E-06	-14143887.94	-14143897.14	-14143900.11	-14143909.31	1	0.213297944	0.125440837	-2.088510144	-0.030194475	0.132544136	0.503561153	0.188144628	-0.121445062	0.10801017	-0.122675525	-0.03559069	0.128296532	0.377683479	0.179551118	-0.178695094	0.099378435	-0.122558397	-0.033928878	0.137582008	0.423745859	0.182034385	-0.13043653	0.110764729	-0.151271104
190	2020/5/18T4:18:23.7	25.6998	34.4962	14	4.6	HP	DRO	21.71	37.952	465	525.1781544	60	60	60	5.54E-05	5.31E-06	-13964607.55	-13964616.75	-13964620.21	-13964629.41	1	-0.611232943	-0.596118323	-1.931371527	-0.515807616	0.110764242	0.503561153	0.188144628	-0.121445062	0.10801017	-0.461593271	-0.461402119	0.107071669	0.377683479	0.179551118	-0.178695094	0.099378435	-0.418306127	0.400549135	0.117004469	0.423745859	0.182034385	-0.13043653	0.110764729	-0.4286105
193	2020/5/18T11:48:9.0	25.6073	34.3121	15	4.5	HP	DRO	21.71	37.952	465	535.0772614	60	60	60	0.000555164	3.11E-06	-13937631.18	-13937640.38	-13937631.19	-13937640.39	1	2.004602733	1.989947206	0.520486859	-0.655706001	0.140087429	0.503561153	0.188144628	-0.121445062	0.10801017	2.29414079	-0.592341311	0.135626449	0.377683479	0.179551118	-0.178695094	0.099378435	2.298698594	0.119249391	0.14483218	0.423745859	0.182034385	-0.13043653	0.110764729	2.30454763
196	2020/5/18T23:22:37.2	25.5762	34.3066	7	5.2	HP	DRO	21.71	37.952	465	533.5461849	60	60	60	0.000132651	1.48E-05	-13895945.41	-13895954.61	-13895959.22	-13895968.42	1	-0.864354047	-0.86728844	-1.424804537	-0.826509415	0.104603435	0.503561153	0.188144628	-0.121445062	0.10801017	-0.404012576	-0.81379422	0.101050847	0.377683479	0.179551118	-0.178695094	0.099378435	-0.337084144	0.823476381	0.11129827	0.423745859	0.182034385	-0.13043653	0.110764729	-0.344970756
316	2020/6/19T7:43:22.0	25.5606	34.3295	8	4.6	HP	DRO	21.71	37.952	465	530.6890888	60	60	60	8.55E-05	7.23E-06	-11187506.68	-11187515.88	-11187520.51	-11187529.71	1	-0.123325467	-0.117273264	-1.449396033	-0.098974396	0.138576471	0.503561153	0.188144628	-0.121445062	0.10801017	-0.390519015	-0.085283974	0.13413432	0.377683479	0.179551118	-0.178695094	0.099378435	-0.315579214	0.783643284	0.143382198	0.423745859	0.182034385	-0.13043653	0.110764729	-0.329729155
317	2020/6/19T20:34:11.9	25.5322	34.5557	30	4.4	HP	DRO	21.71	37.952	465	510.7384757	60	60	60	5.86E-05	3.26E-06	-11141266.09	-11141275.29	-11141265.56	-11141274.76	1	-0.262348081	-0.250631486	-1.876848258	-0.16009215	0.147186193	0.503561153	0.188144628	-0.121445062	0.10801017	-0.468423875	-0.097269299	0.142537541	0.377683479	0.179551118	-0.178695094	0.099378435	-0.43695211	0.488463149	0.151742973	0.423745859	0.182034385	-0.13043653	0.110764729	-0.462001245
337	2020/6/28T11:18:35.0	26.6757	35.5289	8	4.4	HP	DRO	21.71	37.952	465	518.6043022	60	60	60	5.19E-05	3.09E-06	-10397006.36	-10397015.56	-10397016.86	-10397026.06	1	-0.308577186	-0.309631071	-1.93144241	-0.007932511	0.176900345	0.503561153	0.188144628	-0.121445062	0.10801017	-0.666812619	0.062978717	0.171382307	0.377683479	0.179551118	-0.178695094	0.099378435	-0.656199712	0.645813932	0.181209306	0.423745859	0.182034385	-0.13043653	0.110764729	-0.67394618
436	2020/9/18T16:28:18.6	25.2933	34.9338	52	5.3	HP	DRO	21.71	37.952	465	466.9720092	60	60	60	0.000501402	3.54E-05	-3293628.23	-3293637.432	-3293628.3	-3293637.502	1	-0.344850253	-0.281887431	-0.757888204	-0.273046508	0.11201441	0.503561153	0.188144628	-0.121445062	0.10801017	-0.437971689	-0.229920928	0.108296396	0.377683479	0.179551118	-0.178695094	0.099378435	-0.335556427	1.498907075	0.118139703	0.423745859	0.182034385	-0.13043653	0.110764729	-0.353485117
476	2020/10/12T0:30:41.2	26.293	35.6314	21	5.1	HP	DRO	21.71	37.952	465	483.7450853	59.99	60	60	0.000249016	1.33E-05	-1277485.36	-1277494.562	-1277485.49	-1277494.692	1	-0.542247107	-0.438356071	-1.144386549	-0.868885145	0.104558228	0.503561153	0.188144628	-0.121445062	0.10801017	-0.039529906	-0.718689592	0.101010256	0.377683479	0.179551118	-0.178695094	0.099378435	-0.003256402	0.762958612	0.111240824	0.423745859	0.182034385	-0.13043653	0.110764729	-0.004034998
477	2020/10/12T0:44:26.5	26.3168	35.6003	27	4.4	HP	DRO	21.71	37.952	465	487.7496994	60	60	60	5.06E-05	2.91E-06	-1276662.91	-1276672.112	-1276666.63	-1276675.832	1	-0.633519175	-0.585074457	-2.223924462	-0.138118991	0.145103528	0.503561153	0.188144628	-0.121445062	0.10801017	-0.861568127	-0.023105317	0.140510509	0.377683479	0.179551118	-0.178695094	0.099378435	-0.845559064	0.567691467	0.149660425	0.423745859	0.182034385	-0.13043653	0.110764729	-0.888305767
481	2020/10/12T4:11:27.9	26.2926	35.6319	8	5.2	HP	DRO	21.71	37.952	465	483.2819075	60	60	60	0.000324096	2.05E-05	-1264238.98	-1264248.182	-1264243.39	-1264252.592	1	-0.453267209	-0.380595561	-0.965870005	-0.610439738	0.103953817	0.503561153	0.188144628	-0.121445062	0.10801017	-0.208995415	-0.500548741	0.100412146	0.377683479	0.179551118	-0.178695094	0.099378435	-0.163636744	1.103181701	0.110680821	0.423745859	0.182034385	-0.13043653	0.110764729	-0.165741543
127	2020/4/11T10:22:55.6	26.1795	35.2176	21	4.8	HL	EAG2	26.1079	38.54385	1.5	369.7842562	60	60	60	0.001050816	5.96E-05	-17139582.3	-17139591.5	-17139578.05	-17139587.25	1	0.304031101	0.610021593	-0.533201648	-0.225334057	0.110173683	0.687315413	0.227052803	-0.121445062	0.10801017	-0.020557045	-0.112820926	0.106491447	0.838568089	0.217344954	-0.178695094	0.099378435	-0.021632015	1.008544521	0.116456224	0.778493608	0.220200841	-0.13043653	0.110764729	0.006816243
150	2020/5/2T12:51:9.2	25.6915	34.4366	9	6	HL	EAG2	26.1079	38.54385	1.5	457.3858291	60	60	60	0.001419321	0.000199793	-15316245.3	-15316254.5	-15316244.75	-15316253.95	1	-0.599643412	-0.735651773	-0.47855741	-0.930147423	0.106111378	0.687315413	0.227052803	-0.121445062	0.10801017	-0.219418192	-1.180843283	0.102497743	0.838568089	0.217344954	-0.178695094	0.099378435	-0.299283024	1.292843971	0.112683034	0.778493608	0.220200841	-0.13043653	0.110764729	-0.222838968
196	2020/5/18T23:22:37.2	25.5762	34.3066	7	5.2	HL	EAG2	26.1079	38.54385	1.5	472.655564	60	60	60	0.000353697	3.17E-05	-13895956.65	-13895965.85	-13895966.51	-13895975.71	1	-0.502079352	-0.381394733	-0.972303352	-0.826509415	0.104603435	0.687315413	0.227052803	-0.121445062	0.10801017	-0.22549214	-0.81379422	0.101050847	0.838568089	0.217344954	-0.178695094	0.099378435	-0.312075047	0.823476381	0.11129827	0.778493608	0.220200841	-0.13043653	0.110764729	-0.247217321
476	2020/10/12T0:30:41.2	26.293	35.6314	21	5.1	HL	EAG2	26.1079	38.54385	1.5	324.3209581	60	60	60	0.001312107	8.09E-05	-1277501.69	-1277510.892	-1277501.77	-1277510.972	1	-0.558065452	-0.212384524	-0.99122304	-0.868885145	0.104558228	0.687315413	0.227052803	-0.121445062	0.10801017	-0.23910251	-0.718689592	0.101010256	0.838568089	0.217344954	-0.178695094	0.099378435	-0.238169466	0.762958612	0.111240824	0.778493608	0.220200841	-0.13043653	0.110764729	-0.205619239
477	2020/10/12T0:44:26.5	26.3168	35.6003	27	4.4	HL	EAG2	26.1079	38.54385	1.5	328.3121204	60	60	60	0.000287685	2.11E-05	-1276674.6	-1276683.802	-1276674.48	-1276683.682	1	-0.579683473	-0.276625005	-1.989721397	-0.138118991	0.145103528	0.687315413	0.227052803	-0.121445062	0.10801017	-0.991486685	-0.023105317	0.140510509	0.838568089	0.217344954	-0.178695094	0.099378435	-0.997994223	0.567691467	0.149660425	0.778493608	0.220200841	-0.13043653	0.110764729	-1.008850452
480	2020/10/12T2:38:53.6	26.2921	35.6122	19	4.1	HL	EAG2	26.1079	38.54385	1.5	326.3175764	60	60	60	0.000137142	7.33E-06	-1269821.02	-1269830.222	-1269821.11	-1269830.312	1	-0.696469559	-0.431484768	-2.593439128	-0.088105118	0.179097305	0.687315413	0.227052803	-0.121445062	0.10801017	-1.158286644	-0.02074638	0.173537804	0.838568089	0.217344954	-0.178695094	0.099378435	-1.155212922	0.168972904	0.183411771	0.778493608	0.220200841	-0.13043653	0.110764729	-1.21384962
481	2020/10/12T4:11:27.9	26.2926	35.6319	8	5.2	HL	EAG2	26.1079	38.54385	1.5	323.6819665	60	60	60	0.002443765	0.000120658	-1264261.89	-1264271.092	-1264266.44	-1264275.642	1	-0.102199046	0.201200681	-0.456702762	-0.610439738	0.103953817	0.687315413	0.227052803	-0.121445062	0.10801017	-0.041681511	-0.500548741	0.100412146	0.838568089	0.217344954	-0.178695094	0.099378435	-0.042725112	1.103181701	0.110680821	0.778493608	0.220200841	-0.13043653	0.110764729	-0.01132205
491	2020/10/14T22:22:49.9	26.3617	35.6195	12	4	HL	EAG2	26.1079	38.54385	1.5	325.5466293	60	60	60	0.000273632	1.15E-05	-1025964.43	-1025973.632	-1025968.15	-1025977.352	1	0.201131453	0.453538909	-1.86437395	0.483845668	0.168438225	0.687315413	0.227052803	-0.121445062	0.10801017	-0.832636418	0.546429163	0.163203881	0.838568089	0.217344954	-0.178695094	0.099378435	-0.837364788	0.610530238	0.172686224	0.778493608	0.220200841	-0.13043653	0.110764729	-0.926341776
127	2020/4/11T10:22:55.6	26.1795	35.2176	21	4.8	HP	EFP	21.9058	38.4269	107	522.059743	60	60	60	5.59E-05	6.90E-06	-17139540.96	-17139550.16	-17139540.26	-17139549.46	1	-1.043716136	-1.014396698	-2.081166863	-0.225334057	0.110173683	0.10008368	0.206830627	-0.121445062	0.10801017	-0.781072549	-0.112820926	0.106491447	-0.02827158	0.197753411	-0.178695094	0.099378435	-0.779210636	1.008544521	0.116456224	0.001678806	0.200434877	-0.13043653	0.110764729	-0.764334169
150	2020/5/2T12:51:9.2	25.6915	34.4366	9	6	HP	EFP	21.9058	38.4269	107	557.8933734	60	60	60	0.000319845	7.78E-05	-15316238.89	-15316248.09	-15316241.92	-15316251.12	1	-1.117769263	-1.411318585	-1.099670215	-0.930147423	0.106111378	0.10008368	0.206830627	-0.121445062	0.10801017	-0.150312311	-1.180843283	0.102497743	-0.02827158	0.197753411	-0.178695094	0.099378435	-0.108110167	1.292843971	0.112683034	0.001678806	0.200434877	-0.13043653	0.110764729	-0.067136971
157	2020/5/2T16:44:31.3	25.6375	34.4577	5	4.8	HP	EFP	21.9058	38.4269	107	553.0208177	60	60	60	3.94E-05	6.62E-06	-15302232.42	-15302241.62	-15302234.2	-15302243.4	1	-1.097998897	-1.120034899	-2.169057622	-0.245896595	0.11412002	0.10008368	0.206830627	-0.121445062	0.10801017	-0.814792772	-0.194919121	0.110326472	-0.02827158	0.197753411	-0.178695094	0.099378435	-0.802750643	0.940341723	0.12013804	0.001678806	0.200434877	-0.13043653	0.110764729	-0.78402213
190	2020/5/18T4:18:23.7	25.6998	34.4962	14	4.6	HP	EFP	21.9058	38.4269	107	553.1455868	60	60	60	4.20E-05	4.35E-06	-13964602.89	-13964612.09	-13964604.84	-13964614.04	1	-0.603129556	-0.652291528	-1.971467036	-0.515807616	0.110764242	0.10008368	0.206830627	-0.121445062	0.10801017	-0.05001241	-0.461402119	0.107071669	-0.02827158	0.197753411	-0.178695094	0.099378435	-0.068524274	0.400549135	0.117004469	0.001678806	0.200434877	-0.13043653	0.110764729	-0.046638956
196	2020/5/18T23:22:37.2	25.5762	34.3066	7	5.2	HP	EFP	21.9058	38.4269	107	563.4368613	60	60	60	7.82E-05	1.13E-05	-13895946.67	-13895955.87	-13895946.86	-13895956.06	1	-1.092922701	-1.160730787	-1.700970189	-0.826509415	0.104603435	0.10008368	0.206830627	-0.121445062	0.10801017	-0.229103757	-0.81379422	0.101050847	-0.02827158	0.197753411	-0.178695094	0.099378435	-0.224571432	0.823476381	0.11129827	0.001678806	0.200434877	-0.13043653	0.110764729	-0.199069355
436	2020/9/18T16:28:18.6	25.2933	34.9338	52	5.3	HP	EFP	21.9058	38.4269	107	494.5397636	60	60	60	0.000228872	2.34E-05	-3293611.51	-3293620.712	-3293611.41	-3293620.612	1	-0.844617983	-0.83786265	-1.29921002	-0.273046508	0.11201441	0.10008368	0.206830627	-0.121445062	0.10801017	-0.534261946	-0.229920928	0.108296396	-0.02827158	0.197753411	-0.178695094	0.099378435	-0.485576587	1.498907075	0.118139703	0.001678806	0.200434877	-0.13043653	0.110764729	-0.47273988
448	2020/9/25T9:50:45.6	25.0882	34.6756	19	3.6	HP	EFP	21.9058	38.4269	107	504.7301522	60	60	60	0.003437857	1.87E-05	-2712694.35	-2712703.552	-2712694.36	-2712703.562	1	5.49162142	5.387513208	2.500295988	1.034611067	0.29009418	0.10008368	0.206830627	-0.121445062	0.10801017	4.494319882	0.981845701	0.280810562	-0.02827158	0.197753411	-0.178695094	0.099378435	4.528032642	0.637271156	0.302627708	0.001678806	0.200434877	-0.13043653	0.110764729	4.188402047
476	2020/10/12T0:30:41.2	26.293	35.6314	21	5.1	HP	EFP	21.9058	38.4269	107	498.9673405	60	60	60	0.000150834	7.10E-06	-1277471.28	-1277480.482	-1277475	-1277484.202	1	-0.877633921	-0.814815119	-1.512610506	-0.868885145	0.104558228	0.10008368	0.206830627	-0.121445062	0.10801017	0.028560753	-0.718689592	0.101010256	-0.02827158	0.197753411	-0.178695094	0.099378435	0.026239608	0.762958612	0.111240824	0.001678806	0.200434877	-0.13043653	0.110764729	0.049808097
481	2020/10/12T4:11:27.9	26.2926	35.6319	8	5.2	HP	EFP	21.9058	38.4269	107	498.5232949	60	60	60	0.000124651	1.32E-05	-1264227.5	-1264236.702	-1264241.75	-1264250.952	1	-1.243474889	-1.211037313	-1.788081136	-0.610439738	0.103953817	0.10008368	0.206830627	-0.121445062	0.10801017	-0.595725621	-0.500548741	0.100412146	-0.02827158	0.197753411	-0.178695094	0.099378435	-0.588123437	1.103181701	0.110680821	0.001678806	0.200434877	-0.13043653	0.110764729	-0.565885622
476	2020/10/12T0:30:41.2	26.293	35.6314	21	5.1	HA	EPID	23.1189	37.6144	444	359.8143324	60	60	60	0.0003239	1.26E-05	-1277504.62	-1277513.822	-1277509.35	-1277518.552	1	-1.362220519	-0.651639351	-1.798716038	-0.868885145	0.104558228	-0.138970241	0.397729547	-0.121445062	0.10801017	-0.216971924	-0.718689592	0.101010256	0.266394534	0.379222575	-0.178695094	0.099378435	-0.105250738	0.762958612	0.111240824	-0.044018523	0.383814008	-0.13043653	0.110764729	-0.190600106
481	2020/10/12T4:11:27.9	26.2926	35.6319	8	5.2	HA	EPID	23.1189	37.6144	444	359.211053	60	60	60	0.000762516	3.32E-05	-1264261.44	-1264270.642	-1264261.51	-1264270.712	1	-0.674322557	-0.003102291	-1.029311273	-0.610439738	0.103953817	-0.138970241	0.397729547	-0.121445062	0.10801017	0.212480631	-0.500548741	0.100412146	0.266394534	0.379222575	-0.178695094	0.099378435	0.325145471	1.103181701	0.110680821	-0.044018523	0.383814008	-0.13043653	0.110764729	0.23858157
127	2020/4/11T10:22:55.6	26.1795	35.2176	21	4.8	HT	EVGI	20.656	38.621	249	620.5502532	60	60	60	0.000129882	3.91E-06	-17139518.58	-17139527.78	-17139544.71	-17139553.91	1	0.952441465	1.203647279	-0.186622758	-0.225334057	0.110173683	1.957083097	0.187954449	-0.121445062	0.10801017	-0.641914365	-0.112820926	0.106491447	2.054896836	0.179364766	-0.178695094	0.099378435	-0.644335076	1.008544521	0.116456224	1.785416622	0.181844852	-0.13043653	0.110764729	-0.653527881
150	2020/5/2T12:51:9.2	25.6915	34.4366	9	6	HT	EVGI	20.656	38.621	249	647.1343571	60	60	60	0.000919772	3.38E-05	-15316247.11	-15316256.31	-15316244.06	-15316253.26	1	0.953920938	0.935314709	0.918789501	-0.930147423	0.106111378	1.957083097	0.187954449	-0.121445062	0.10801017	0.064378474	-1.180843283	0.102497743	2.054896836	0.179364766	-0.178695094	0.099378435	0.15535471	1.292843971	0.112683034	1.785416622	0.181844852	-0.13043653	0.110764729	0.167584929
157	2020/5/2T16:44:31.3	25.6375	34.4577	5	4.8	HT	EVGI	20.656	38.621	249	642.007383	60	60	60	0.000117765	4.26E-06	-15302244.8	-15302254	-15302245.38	-15302254.58	1	1.052212689	1.265281472	-0.111648095	-0.245896595	0.11412002	1.957083097	0.187954449	-0.121445062	0.10801017	-0.521580603	-0.194919121	0.110326472	2.054896836	0.179364766	-0.178695094	0.099378435	-0.500602688	0.940341723	0.12013804	1.785416622	0.181844852	-0.13043653	0.110764729	-0.51035042
